"place_name","lat","lon","geo","place_descryption","plc_id","tpes"
"""امور مالیاتی کردستان، ساختمان فلسطین""","35.3095752","47.0032524","0101000020E610000017D11B936A80474017D11B936A804740","""Sanandaj""","22","[""accounting"",""local_government_office"",""finance"",""point_of_interest"",""establishment""]"
"""امور مالیاتی کردستان، ساختمان فلسطین""","35.3095752","47.0032524","0101000020E610000017D11B936A80474017D11B936A804740","""Sanandaj""","23","[""accounting"",""local_government_office"",""finance"",""point_of_interest"",""establishment""]"
"""Sanandaj International Airport""","35.2516595","47.0135916","0101000020E61000000AC09A5EBD8147400AC09A5EBD814740","""Sanandaj, Kermanshah Hwy Sanandaj""","24","[""airport"",""point_of_interest"",""establishment""]"
"""Toheed Hospital Heliport""","35.3002389","47.017796","0101000020E6100000F3FFAA2347824740F3FFAA2347824740","""Sanandaj""","25","[""premise"",""airport"",""point_of_interest"",""establishment""]"
"""Children Park""","35.2975291","46.979903","0101000020E61000004B2025766D7D47404B2025766D7D4740","""Sanandaj, Abidar Circular""","26","[""amusement_park"",""point_of_interest"",""establishment""]"
"""آبیدر""","35.3115281","46.9663063","0101000020E61000009B35C2ECAF7B47409B35C2ECAF7B4740","""Sanandaj""","27","[""amusement_park"",""point_of_interest"",""establishment""]"
"""شهر بازی پارک ملّت""","35.2979224","47.0019975","0101000020E61000003C963E74418047403C963E7441804740","""Sanandaj""","28","[""park"",""premise"",""amusement_park"",""point_of_interest"",""establishment""]"
"""گالری خط چوبی""","35.3191514","46.9954187","0101000020E6100000D42945E1697F4740D42945E1697F4740","""Sanandaj""","29","[""art_gallery"",""point_of_interest"",""establishment""]"
"""26 Atelier""","35.3259183","46.9986926","0101000020E6100000EEE0BB28D57F4740EEE0BB28D57F4740","""Sanandaj""","30","[""art_gallery"",""point_of_interest"",""establishment""]"
"""گالری معماری قریشی _ اوبو دیزاین""","35.3134282","46.9781952","0101000020E6100000568D1480357D4740568D1480357D4740","""Sanandaj, كوچۀ بهشت 4""","31","[""art_gallery"",""point_of_interest"",""establishment""]"
"""Maskan Bank""","35.3121431","46.9951719","0101000020E6100000F832F6CA617F4740F832F6CA617F4740","""Sanandaj, Keshavarz Street""","32","[""bank"",""atm"",""finance"",""point_of_interest"",""establishment""]"
"""Melli Bank""","35.3105685","46.9964747","0101000020E61000004DE5A37B8C7F47404DE5A37B8C7F4740","""Sanandaj, پاسداران""","33","[""atm"",""finance"",""point_of_interest"",""establishment""]"
"""Melli Bank""","35.3089147","47.0004049","0101000020E61000000B218C440D8047400B218C440D804740","""Sanandaj, Sayed Qutb""","34","[""bank"",""atm"",""finance"",""point_of_interest"",""establishment""]"
"""چاپ ادیب""","35.3127707","47.0027656","0101000020E6100000E3C6889F5A804740E3C6889F5A804740","""Sanandaj, Namaki Boulevard""","35","[""atm"",""finance"",""point_of_interest"",""establishment""]"
"""Maskan Bank""","35.3123379","46.9892026","0101000020E61000001F0FD8309E7E47401F0FD8309E7E4740","""Sanandaj, Mardokh Street""","36","[""bank"",""atm"",""finance"",""point_of_interest"",""establishment""]"
"""Maskan Bank""","35.3154261","47.0028377","0101000020E610000013595AFC5C80474013595AFC5C804740","""Sanandaj, خیابان سیروس""","37","[""bank"",""atm"",""finance"",""point_of_interest"",""establishment""]"
"""Maskan Bank""","35.3213845","47.001919","0101000020E6100000DB1EBDE13E804740DB1EBDE13E804740","""Sanandaj, Taleghani Street""","38","[""bank"",""atm"",""finance"",""point_of_interest"",""establishment""]"
"""Maskan Bank""","35.300333","46.9963132","0101000020E61000005C49E130877F47405C49E130877F4740","""Sanandaj, Adab Street""","39","[""bank"",""atm"",""finance"",""point_of_interest"",""establishment""]"
"""ATM Karafarin bank""","35.311881","46.9958106","0101000020E61000004C01C4B8767F47404C01C4B8767F4740","""Sanandaj""","40","[""atm"",""finance"",""point_of_interest"",""establishment""]"
"""ATM Sepah bank""","35.3121494","46.9962605","0101000020E6100000F9E5CC76857F4740F9E5CC76857F4740","""Sanandaj""","41","[""atm"",""finance"",""point_of_interest"",""establishment""]"
"""ATM Mellat bank""","35.3117527","46.9968305","0101000020E6100000E2934E24987F4740E2934E24987F4740","""Sanandaj""","42","[""atm"",""finance"",""point_of_interest"",""establishment""]"
"""ATM Tejarat bank""","35.3122695","46.9965211","0101000020E61000000F23DF008E7F47400F23DF008E7F4740","""Sanandaj""","43","[""atm"",""finance"",""point_of_interest"",""establishment""]"
"""ATM Meli bank""","35.3106747","46.9959937","0101000020E6100000D242B8B87C7F4740D242B8B87C7F4740","""Sanandaj""","44","[""atm"",""finance"",""point_of_interest"",""establishment""]"
"""شرکت آدونیس""","35.3102527","46.9933284","0101000020E610000011189062257F474011189062257F4740","""Sanandaj, Golbarg Alley""","45","[""atm"",""finance"",""point_of_interest"",""establishment""]"
"""Ghavamin Bank""","35.3108805","46.999507","0101000020E6100000C18F6AD8EF7F4740C18F6AD8EF7F4740","""Sanandaj, Felestin Street""","46","[""atm"",""finance"",""point_of_interest"",""establishment""]"
"""Tejarat bank ATM""","35.3121097","46.9790599","0101000020E61000009BA9B5D5517D47409BA9B5D5517D4740","""Mobarak Abad, Sanandaj""","47","[""atm"",""finance"",""point_of_interest"",""establishment""]"
"""خود پرداز بانک مسکن""","35.3019633","47.0084458","0101000020E6100000EF6481C014814740EF6481C014814740","""Sanandaj""","48","[""atm"",""finance"",""point_of_interest"",""establishment""]"
"""بانک مسکن""","35.3116772","46.9789405","0101000020E61000006D1D1CEC4D7D47406D1D1CEC4D7D4740","""Mobarak Abad, Sanandaj""","49","[""atm"",""finance"",""point_of_interest"",""establishment""]"
"""Sepah bank ATM""","35.3133089","46.9784725","0101000020E610000087C43D963E7D474087C43D963E7D4740","""Sanandaj, Chamran Boulevard""","50","[""atm"",""finance"",""point_of_interest"",""establishment""]"
"""Ansar Bank ATM""","35.2995344","46.9860825","0101000020E610000035548CF3377E474035548CF3377E4740","""Sanandaj""","51","[""atm"",""finance"",""point_of_interest"",""establishment""]"
"""نانوایی لواش بدری""","35.3144215","46.9934667","0101000020E61000002015B5EA297F47402015B5EA297F4740","""Sanandaj""","52","[""bakery"",""food"",""store"",""point_of_interest"",""establishment""]"
"""نان سەنەکی""","35.3071029","46.9934677","0101000020E6100000F09018F3297F4740F09018F3297F4740","""Sanandaj""","53","[""bakery"",""food"",""store"",""point_of_interest"",""establishment""]"
"""نانوایی سنگک""","35.317241","47.0006262","0101000020E6100000A842F28414804740A842F28414804740","""Sanandaj""","54","[""bakery"",""food"",""store"",""point_of_interest"",""establishment""]"
"""نانوایی جمال امینی""","35.3231724","46.9982122","0101000020E6100000EEBBD86AC57F4740EEBBD86AC57F4740","""Sanandaj""","55","[""bakery"",""food"",""store"",""point_of_interest"",""establishment""]"
"""خبازی ماشینی قادریان""","35.319858","46.9842044","0101000020E6100000274AE768FA7D4740274AE768FA7D4740","""Sanandaj, Shahid Borujerdi Street""","56","[""bakery"",""food"",""store"",""point_of_interest"",""establishment""]"
"""Lavash Bread""","35.2988736","46.9894574","0101000020E610000081E4428AA67E474081E4428AA67E4740","""Sanandaj, Sa'di Street""","57","[""bakery"",""food"",""store"",""point_of_interest"",""establishment""]"
"""sangak bread""","35.2987646","46.989281","0101000020E6100000EFC682C2A07E4740EFC682C2A07E4740","""Sanandaj, Sa'di Street""","58","[""bakery"",""food"",""store"",""point_of_interest"",""establishment""]"
"""سنگک پزی""","35.314578","47.0176059","0101000020E6100000BC5BFEE840824740BC5BFEE840824740","""Sanandaj, Ali Asghar Kordestani Street""","59","[""bakery"",""food"",""store"",""point_of_interest"",""establishment""]"
"""نانوای شاطرصدیق""","35.3258565","47.0140614","0101000020E6100000669192C3CC814740669192C3CC814740","""فرجه، سنندج""","60","[""bakery"",""food"",""store"",""point_of_interest"",""establishment""]"
"""نانوایی آقای اسدی""","35.317142","47.0208229","0101000020E610000002412553AA82474002412553AA824740","""Sanandaj""","61","[""bakery"",""food"",""store"",""point_of_interest"",""establishment""]"
"""نانوای شاطر رمضان""","35.3176202","47.0218143","0101000020E6100000E68A9CCFCA824740E68A9CCFCA824740","""فرجه، سنندج""","62","[""bakery"",""food"",""store"",""point_of_interest"",""establishment""]"
"""سنگک داغ""","35.3147553","47.0229381","0101000020E61000008BAABAA2EF8247408BAABAA2EF824740","""Sanandaj, فرجه, Ali Asghar Kordestani Street""","63","[""bakery"",""food"",""store"",""point_of_interest"",""establishment""]"
"""نانوایی شاطر جمال""","35.3175485","47.0222817","0101000020E610000050667220DA82474050667220DA824740","""فرجه، سنندج""","64","[""bakery"",""food"",""store"",""point_of_interest"",""establishment""]"
"""نانوایی شاطر عبید""","35.318349","47.0221147","0101000020E610000064A18CA7D482474064A18CA7D4824740","""Sanandaj, فرجه, Saghez Road Circular""","65","[""bakery"",""food"",""store"",""point_of_interest"",""establishment""]"
"""Saadi Rezaei Bakery""","35.3159621","47.0237777","0101000020E6100000E2EFCD250B834740E2EFCD250B834740","""فرجه، سنندج""","66","[""bakery"",""food"",""store"",""point_of_interest"",""establishment""]"
"""سنگک و بربری""","35.3198219","47.0226029","0101000020E6100000BB25DEA6E4824740BB25DEA6E4824740","""Sanandaj, فرجه, Saghez Road Circular""","67","[""bakery"",""food"",""store"",""point_of_interest"",""establishment""]"
"""Barbary Zagros""","35.282354","46.9849108","0101000020E610000013BD9D8E117E474013BD9D8E117E4740","""Zagros Town, Sanandaj""","68","[""bakery"",""food"",""store"",""point_of_interest"",""establishment""]"
"""نان لواش""","35.2806057","46.989892","0101000020E61000003849F3C7B47E47403849F3C7B47E4740","""Zagros Town, Sanandaj""","69","[""bakery"",""food"",""store"",""point_of_interest"",""establishment""]"
"""Lavash Bread""","35.280942","46.987244","0101000020E61000000B96EA025E7E47400B96EA025E7E4740","""Sanandaj, Zagros Town, خيابان سيروان""","70","[""bakery"",""food"",""store"",""point_of_interest"",""establishment""]"
"""نان لەواش""","35.274808","46.9825561","0101000020E61000001EFEF565C47D47401EFEF565C47D4740","""Sanandaj, Vila Shahr, خیابان آبشار""","71","[""bakery"",""food"",""store"",""point_of_interest"",""establishment""]"
"""Mellat Bank""","35.3117502","46.9968939","0101000020E61000007C0A25389A7F47407C0A25389A7F4740","""Sanandaj""","72","[""bank"",""finance"",""point_of_interest"",""establishment""]"
"""Bank saderat iran""","35.3119948","46.9958085","0101000020E6100000154A26A7767F4740154A26A7767F4740","""Sanandaj""","73","[""bank"",""finance"",""point_of_interest"",""establishment""]"
"""City Bank""","35.3212228","46.991156","0101000020E6100000F99D2633DE7E4740F99D2633DE7E4740","""Sanandaj, سنندج- خيابان امام خميني- مقابل گمرک-طبقه همکف واحد خدمات شهري, Imam""","74","[""bank"",""finance"",""point_of_interest"",""establishment""]"
"""Cooperative Development Bank""","35.3079481","46.9942588","0101000020E61000004EE152DF437F47404EE152DF437F4740","""Sanandaj, Hassan Abad Street""","75","[""bank"",""finance"",""point_of_interest"",""establishment""]"
"""Ghavamin Bank""","35.3079769","46.9942736","0101000020E61000005BA3795B447F47405BA3795B447F4740","""Sanandaj, Hassan Abad Street""","76","[""bank"",""finance"",""point_of_interest"",""establishment""]"
"""Resalat Bank""","35.3083084","46.9999456","0101000020E6100000B9E3A837FE7F4740B9E3A837FE7F4740","""Sanandaj, Sayed Qutb""","77","[""bank"",""finance"",""point_of_interest"",""establishment""]"
"""Bank Keshavarzi""","35.3100132","46.9958465","0101000020E610000004ABEAE5777F474004ABEAE5777F4740","""Sanandaj, Hassan Abad""","78","[""bank"",""finance"",""point_of_interest"",""establishment""]"
"""Maskan Bank""","35.3121431","46.9951719","0101000020E6100000F832F6CA617F4740F832F6CA617F4740","""Sanandaj, Keshavarz Street""","79","[""bank"",""atm"",""finance"",""point_of_interest"",""establishment""]"
"""اداره امورشعب بانك ملي استان كردستان""","35.3107371","46.9962528","0101000020E610000032463536857F474032463536857F4740","""Sanandaj""","80","[""bank"",""finance"",""point_of_interest"",""establishment""]"
"""Bank Melli""","35.3105308","46.9962262","0101000020E61000008D351257847F47408D351257847F4740","""Sanandaj""","81","[""bank"",""finance"",""point_of_interest"",""establishment""]"
"""Melli Bank""","35.3105686","46.996395","0101000020E6100000F07211DF897F4740F07211DF897F4740","""Sanandaj""","82","[""bank"",""finance"",""point_of_interest"",""establishment""]"
"""Melli Bank""","35.313406","46.9924672","0101000020E6100000252D4B2A097F4740252D4B2A097F4740","""Sanandaj, Keshavarz Street""","83","[""bank"",""finance"",""point_of_interest"",""establishment""]"
"""Ayandeh Bank بانک آینده""","35.3115538","46.9918057","0101000020E610000042BE3A7DF37E474042BE3A7DF37E4740","""Sanandaj""","84","[""bank"",""finance"",""point_of_interest"",""establishment""]"
"""Tejarat Bank""","35.3083424","46.9977069","0101000020E61000002C3F15DCB47F47402C3F15DCB47F4740","""Sanandaj, Farid Tarif""","85","[""bank"",""finance"",""point_of_interest"",""establishment""]"
"""Melli Bank""","35.3089147","47.0004049","0101000020E61000000B218C440D8047400B218C440D804740","""Sanandaj, Sayed Qutb""","86","[""bank"",""atm"",""finance"",""point_of_interest"",""establishment""]"
"""Maskan Bank""","35.3123379","46.9892026","0101000020E61000001F0FD8309E7E47401F0FD8309E7E4740","""Sanandaj, Mardokh Street""","87","[""bank"",""atm"",""finance"",""point_of_interest"",""establishment""]"
"""Bank saderat iran""","35.3172131","46.9985998","0101000020E61000006565451ED27F47406565451ED27F4740","""Sanandaj""","88","[""bank"",""finance"",""point_of_interest"",""establishment""]"
"""Maskan Bank""","35.3154261","47.0028377","0101000020E610000013595AFC5C80474013595AFC5C804740","""Sanandaj, خیابان سیروس""","89","[""bank"",""atm"",""finance"",""point_of_interest"",""establishment""]"
"""Bank melli""","35.3076993","46.9895118","0101000020E6100000C8009A52A87E4740C8009A52A87E4740","""Sanandaj""","90","[""bank"",""finance"",""point_of_interest"",""establishment""]"
"""Credit institution Skryh - Sanandaj Branch - 359 Index""","35.304943","46.9981492","0101000020E6100000A7435D5AC37F4740A7435D5AC37F4740","""Sanandaj, Hafez Street""","91","[""bank"",""finance"",""point_of_interest"",""establishment""]"
"""کبابی بهار""","35.3102266","46.9954696","0101000020E6100000C314408C6B7F4740C314408C6B7F4740","""Sanandaj, میدان اقبال""","92","[""bar"",""restaurant"",""food"",""point_of_interest"",""establishment""]"
"""قهوه خانه خالو امیر""","35.3192999","47.0124641","0101000020E6100000E0EF726C98814740E0EF726C98814740","""Sanandaj""","93","[""bar"",""point_of_interest"",""establishment""]"
"""Toreh beauty salon""","35.3113513","46.9866753","0101000020E6100000B0A250604B7E4740B0A250604B7E4740","""Sanandaj""","94","[""beauty_salon"",""point_of_interest"",""establishment""]"
"""سالن زیبایی گیوا""","35.3014371","46.9950485","0101000020E610000089B7CEBF5D7F474089B7CEBF5D7F4740","""Sanandaj""","95","[""beauty_salon"",""point_of_interest"",""establishment""]"
"""Shideh beauty""","35.299774","46.9954498","0101000020E6100000A6E727E66A7F4740A6E727E66A7F4740","""Sanandaj, Jame Jam Boulevard""","96","[""beauty_salon"",""point_of_interest"",""establishment""]"
"""کلبه زیبایی اسلایس""","35.3232786","46.9997699","0101000020E61000003903C875F87F47403903C875F87F4740","""Sanandaj""","97","[""beauty_salon"",""point_of_interest"",""establishment""]"
"""سالن زیبایی ورتاج""","35.3166747","46.974079","0101000020E6100000365CE49EAE7C4740365CE49EAE7C4740","""Sanandaj, Shebli""","98","[""beauty_salon"",""point_of_interest"",""establishment""]"
"""فروشگاه مرادی""","35.307307","46.9919586","0101000020E610000033FED87FF87E474033FED87FF87E4740","""Sanandaj""","99","[""bicycle_store"",""store"",""point_of_interest"",""establishment""]"
"""Rostami bike shop""","35.3133803","47.0069438","0101000020E61000007AF4D088E38047407AF4D088E3804740","""Sanandaj, خیابان, Enqelab""","100","[""bicycle_store"",""store"",""point_of_interest"",""establishment""]"
"""کتاب هفت Seven Book""","35.309585","46.9977173","0101000020E6100000A3135333B57F4740A3135333B57F4740","""Sanandaj""","101","[""book_store"",""store"",""point_of_interest"",""establishment""]"
"""کتاب مهرگان""","35.3091347","46.997315","0101000020E6100000B6679604A87F4740B6679604A87F4740","""Sanandaj, Pasdaran""","102","[""book_store"",""store"",""point_of_interest"",""establishment""]"
"""کتاب شهر""","35.3054158","46.9994071","0101000020E6100000F4F16492EC7F4740F4F16492EC7F4740","""Sanandaj, Pasdaran Street""","103","[""book_store"",""store"",""point_of_interest"",""establishment""]"
"""کتاب نالی(کتێبی نالی)""","35.3194104","46.9959015","0101000020E6100000C8444AB3797F4740C8444AB3797F4740","""Sanandaj, خیابان فرح- پاساژ آبیدر- پلاک ١٠, Farah Street""","104","[""book_store"",""store"",""point_of_interest"",""establishment""]"
"""خرید و فروش کتاب دست دوم و کاغذ باطله""","35.313221","47.0118928","0101000020E6100000688709B485814740688709B485814740","""Sanandaj, Laleh Street""","105","[""book_store"",""store"",""point_of_interest"",""establishment""]"
"""ايستگاه اتوبوس ناصر خسرو""","35.3155659","46.9968336","0101000020E6100000E8C64F3E987F4740E8C64F3E987F4740","""Sanandaj""","106","[""bus_station"",""transit_station"",""point_of_interest"",""establishment""]"
"""Sayed Qutb""","35.3109098","47.0016789","0101000020E6100000EE4BA20337804740EE4BA20337804740","""Sanandaj""","107","[""bus_station"",""transit_station"",""point_of_interest"",""establishment""]"
"""Azadi Square station""","35.3077448","46.9994903","0101000020E6100000AB95534CEF7F4740AB95534CEF7F4740","""Sanandaj""","108","[""bus_station"",""transit_station"",""point_of_interest"",""establishment""]"
"""ایستگاه سه راه ادب""","35.3035158","47.0010513","0101000020E6100000248FF17222804740248FF17222804740","""Sanandaj, پاسداران""","109","[""bus_station"",""transit_station"",""point_of_interest"",""establishment""]"
"""ایستگاه دانشکده کشاورزی""","35.3031918","47.0034814","0101000020E610000078921914728047407892191472804740","""Sanandaj, Hadi Ziaoddini Boulevard""","110","[""bus_station"",""transit_station"",""point_of_interest"",""establishment""]"
"""ترمینال سنندج ، مریوان""","35.3218748","46.9861647","0101000020E61000001C7C17A53A7E47401C7C17A53A7E4740","""Sanandaj""","111","[""bus_station"",""transit_station"",""point_of_interest"",""establishment""]"
"""ایستگاه دانشکده علوم انسانی""","35.2978725","46.9878012","0101000020E61000008B790C45707E47408B790C45707E4740","""Sanandaj""","112","[""bus_station"",""transit_station"",""point_of_interest"",""establishment""]"
"""ایستگاه سرای سالمندان""","35.2952805","46.9996512","0101000020E61000001EB40D92F47F47401EB40D92F47F4740","""Sanandaj, Jame Jam Boulevard""","113","[""bus_station"",""transit_station"",""point_of_interest"",""establishment""]"
"""ایستگاه خاک شناسی""","35.2933584","46.9973338","0101000020E610000003194BA2A87F474003194BA2A87F4740","""Sanandaj, کوچه ی خاک شناسی""","114","[""bus_station"",""transit_station"",""point_of_interest"",""establishment""]"
"""ایستگاه علوم پزشکی""","35.2828801","47.003417","0101000020E610000010A0DFF76F80474010A0DFF76F804740","""Sanandaj, Pasdaran Boulevard""","115","[""bus_station"",""transit_station"",""point_of_interest"",""establishment""]"
"""Abidar Town Bus Stop""","35.2813605","46.9888794","0101000020E61000001258A599937E47401258A599937E4740","""Sanandaj, کوچه هیوا""","116","[""bus_station"",""transit_station"",""point_of_interest"",""establishment""]"
"""ترمینال مریوان-سنندج""","35.3440148","47.013694","0101000020E6100000631399B9C0814740631399B9C0814740","""Sanandaj, A82""","117","[""bus_station"",""transit_station"",""point_of_interest"",""establishment""]"
"""Morvarid""","35.2763813","46.981793","0101000020E61000008B389D64AB7D47408B389D64AB7D4740","""Sanandaj""","118","[""bus_station"",""transit_station"",""point_of_interest"",""establishment""]"
"""Payam Town""","35.2724354","47.0094788","0101000020E6100000AE00F09936814740AE00F09936814740","""Baharan Town, Pasdaran Boulevard""","119","[""bus_station"",""transit_station"",""point_of_interest"",""establishment""]"
"""ایستگاه خیابان بوستان""","35.2695054","47.0044953","0101000020E61000002A3E4F4D938047402A3E4F4D93804740","""Baharan Town, 22 Bahman Boulevard""","120","[""bus_station"",""transit_station"",""point_of_interest"",""establishment""]"
"""ایستگاه سوپر شیشه ای""","35.2684324","46.9927955","0101000020E6100000D80E46EC137F4740D80E46EC137F4740","""Sanandaj""","121","[""bus_station"",""transit_station"",""point_of_interest"",""establishment""]"
"""ایستگاه میدان قانع""","35.268082","46.9960785","0101000020E6100000D7DF12807F7F4740D7DF12807F7F4740","""Sanandaj, 22 Bahman Boulevard""","122","[""bus_station"",""transit_station"",""point_of_interest"",""establishment""]"
"""ایستگاه 4/19""","35.2655986","47.0092535","0101000020E6100000D0EFFB372F814740D0EFFB372F814740","""Baharan Town, Baharan 4/19""","123","[""bus_station"",""transit_station"",""point_of_interest"",""establishment""]"
"""Ghane""","35.2605396","46.99242","0101000020E6100000BBF2599E077F4740BBF2599E077F4740","""Sanandaj, Baharan 2/19""","124","[""bus_station"",""transit_station"",""point_of_interest"",""establishment""]"
"""ایستگاه 3/19""","35.2607323","47.0073009","0101000020E61000009D5D633CEF8047409D5D633CEF804740","""Baharan Town, 29Esfand Boulevard""","125","[""bus_station"",""transit_station"",""point_of_interest"",""establishment""]"
"""تصفیه آب کانی شفا""","35.2973884","46.9970642","0101000020E61000009681B9CC9F7F47409681B9CC9F7F4740","""Sanandaj, Jame Jam Boulevard""","126","[""cafe"",""food"",""point_of_interest"",""establishment""]"
"""سرزمین جاذبه Gravity Land""","35.3174722","46.9681111","0101000020E610000080B28410EB7B474080B28410EB7B4740","""Sanandaj, Baharan Town, 35°19'02. 46°58'05., 9th Alley""","127","[""cafe"",""food"",""point_of_interest"",""establishment""]"
"""کافه هنر سنندج""","35.3127102","46.9966394","0101000020E6100000D8733EE1917F4740D8733EE1917F4740","""Sanandaj, Ferdowsi Street""","128","[""cafe"",""food"",""point_of_interest"",""establishment""]"
"""Rezan Cafè""","35.3130968","46.9957771","0101000020E6100000884DBF9F757F4740884DBF9F757F4740","""Sanandaj, Rezan Road""","129","[""cafe"",""food"",""point_of_interest"",""establishment""]"
"""Shahr Ghashang Ice Cream""","35.3113681","46.9932248","0101000020E6100000BEC980FD217F4740BEC980FD217F4740","""Sanandaj, Abidar Street""","130","[""cafe"",""food"",""point_of_interest"",""establishment""]"
"""Wsha Cafe""","35.307971","46.9954348","0101000020E610000070A653686A7F474070A653686A7F4740","""Sanandaj""","131","[""cafe"",""food"",""point_of_interest"",""establishment""]"
"""کافه ژیکان""","35.3096832","47.0009494","0101000020E6100000B5F9241C1F804740B5F9241C1F804740","""Sanandaj""","132","[""cafe"",""food"",""point_of_interest"",""establishment""]"
"""کافه کتاب کال""","35.3119393","46.9898058","0101000020E61000000F32DAF4B17E47400F32DAF4B17E4740","""Sanandaj""","133","[""cafe"",""food"",""store"",""point_of_interest"",""establishment""]"
"""گيم نت كاكتوس(cactoos)""","35.3069918","46.9925326","0101000020E61000005E9BE84E0B7F47405E9BE84E0B7F4740","""Sanandaj, Hasan Abad""","134","[""cafe"",""food"",""point_of_interest"",""establishment""]"
"""كافه نيلا""","35.3073346","47.0005253","0101000020E610000009298936118047400929893611804740","""Sanandaj, 12 Ordibehesht Street""","135","[""cafe"",""food"",""store"",""point_of_interest"",""establishment""]"
"""کافه کتاب ترنج Toranj Book Cafe""","35.3131004","47.0029282","0101000020E61000003A9E85F35F8047403A9E85F35F804740","""Sanandaj""","136","[""cafe"",""food"",""point_of_interest"",""establishment""]"
"""Darin cafe""","35.3130093","46.9892774","0101000020E610000001D64FA4A07E474001D64FA4A07E4740","""Sanandaj""","137","[""cafe"",""food"",""point_of_interest"",""establishment""]"
"""سفره خانه صوفی""","35.3160797","47.0013467","0101000020E6100000903AF0202C804740903AF0202C804740","""Sanandaj, خیابان سیروس""","138","[""cafe"",""food"",""point_of_interest"",""establishment""]"
"""Cafe Viona""","35.3179676","46.9946847","0101000020E6100000722A08D4517F4740722A08D4517F4740","""Sanandaj""","139","[""cafe"",""food"",""point_of_interest"",""establishment""]"
"""کافی شاپ O2""","35.3056008","46.999324","0101000020E6100000CE0D4DD9E97F4740CE0D4DD9E97F4740","""Sanandaj, Pasdaran""","140","[""cafe"",""food"",""point_of_interest"",""establishment""]"
"""کافی شاپ هانی""","35.3056116","46.9994072","0101000020E610000087B13B93EC7F474087B13B93EC7F4740","""Sanandaj""","141","[""cafe"",""food"",""point_of_interest"",""establishment""]"
"""Cafe 90""","35.3184165","46.9970871","0101000020E6100000B8E1D28CA07F4740B8E1D28CA07F4740","""Sanandaj, Emam Street, No. 90""","142","[""cafe"",""food"",""point_of_interest"",""establishment""]"
"""کافه کتاب ترنج""","35.3094958","47.0053428","0101000020E610000071A2A712AF80474071A2A712AF804740","""Sanandaj, Kordestan Boulevard""","143","[""cafe"",""food"",""point_of_interest"",""establishment""]"
"""کافی نت چهارباغ""","35.3207662","47.0015321","0101000020E610000077B22F343280474077B22F3432804740","""Sanandaj""","144","[""cafe"",""food"",""point_of_interest"",""establishment""]"
"""Emarat Co.""","35.3150617","46.9844431","0101000020E6100000ECA2433B027E4740ECA2433B027E4740","""سنندج-بلوار شبلی- جنب عمارت خسرو آباد""","145","[""cafe"",""food"",""point_of_interest"",""establishment""]"
"""Abidar Regional Park""","35.3071174","46.9701315","0101000020E6100000E3A8DC442D7C4740E3A8DC442D7C4740","""Sanandaj, خ محی الدین حق شناس, Abidar Circular""","146","[""campground"",""park"",""lodging"",""point_of_interest"",""establishment""]"
"""دخانیات""","35.3178434","46.9991711","0101000020E6100000DECDAED6E47F4740DECDAED6E47F4740","""Sanandaj, Taleghani Street""","147","[""car_dealer"",""store"",""point_of_interest"",""establishment""]"
"""اتوگالری هورامان""","35.3031869","47.0072724","0101000020E6100000ED14504DEE804740ED14504DEE804740","""Sanandaj, Geryashan Boulevard""","148","[""car_dealer"",""store"",""point_of_interest"",""establishment""]"
"""نگین خودرو کردستان نمایندگی رعدی""","35.310741","47.043232","0101000020E610000002124DA08885474002124DA088854740","""Sanandaj, 46, شرکت راهنیان کردستان""","149","[""car_dealer"",""store"",""point_of_interest"",""establishment""]"
"""تعمیرگاه ایران خودرو شورش نورالهی""","35.3109437","47.0052862","0101000020E61000005F0FDC37AD8047405F0FDC37AD804740","""Sanandaj, خ, Namaki Boulevard""","150","[""car_repair"",""point_of_interest"",""establishment""]"
"""نمايندگي بوتان كريمي""","35.3013837","47.0019532","0101000020E6100000B00FA10040804740B00FA10040804740","""Sanandaj""","151","[""car_repair"",""point_of_interest"",""establishment""]"
"""میدان نبوت""","35.3131034","47.0113993","0101000020E610000041594288758147404159428875814740","""Sanandaj, 21""","152","[""car_repair"",""store"",""point_of_interest"",""establishment""]"
"""پارس یدک - قطعات یدکی خودرو""","35.3134733","47.0123367","0101000020E61000003185BD3F948147403185BD3F94814740","""Sanandaj""","153","[""car_repair"",""store"",""point_of_interest"",""establishment""]"
"""شوك سيستم""","35.2973205","46.9971681","0101000020E6100000A70E4D34A37F4740A70E4D34A37F4740","""Sanandaj, Jame Jam Boulevard""","154","[""electronics_store"",""car_repair"",""store"",""point_of_interest"",""establishment""]"
"""تعمیرگاه موتور استاد بها""","35.3155309","47.0132889","0101000020E61000002C735F73B38147402C735F73B3814740","""Sanandaj""","155","[""car_repair"",""point_of_interest"",""establishment""]"
"""صافکاری و تودوزی علی دانایی""","35.3144598","47.0141619","0101000020E6100000B3ACA00ED0814740B3ACA00ED0814740","""Sanandaj, Abas Abad Circular Road""","156","[""car_repair"",""point_of_interest"",""establishment""]"
"""باطریسازی مسعود""","35.3266487","47.0008605","0101000020E6100000D8AD65321C804740D8AD65321C804740","""Sanandaj, Takhti Street""","157","[""car_repair"",""point_of_interest"",""establishment""]"
"""آپاراتی خودرو""","35.3142847","47.0158625","0101000020E6100000CC5D4BC807824740CC5D4BC807824740","""Sanandaj, Ali Asghar Kordestani Street""","158","[""car_repair"",""point_of_interest"",""establishment""]"
"""تعمیرگاه موتورالات کشاورزی و صنعتی دقت""","35.3269197","47.0051702","0101000020E6100000F5F4C76AA9804740F5F4C76AA9804740","""Sanandaj""","159","[""car_repair"",""point_of_interest"",""establishment""]"
"""تعمیرگاه اتومبیل شهرک صنعتی""","35.3127352","47.0170051","0101000020E6100000BF2E1E392D824740BF2E1E392D824740","""Sanandaj, Abas Abad Circular Road""","160","[""car_repair"",""point_of_interest"",""establishment""]"
"""صافکاری و نوسازی محمد""","35.3122758","47.0171355","0101000020E6100000DF0CFE7E31824740DF0CFE7E31824740","""Sanandaj""","161","[""car_repair"",""point_of_interest"",""establishment""]"
"""تعمیرگاه تیمور""","35.3274788","47.0046665","0101000020E6100000827170E998804740827170E998804740","""Sanandaj""","162","[""car_repair"",""point_of_interest"",""establishment""]"
"""فروشگاه ماد پارت""","35.3111987","47.0180914","0101000020E610000060ABA9D15082474060ABA9D150824740","""Sanandaj, Abas Abad Circular Road""","163","[""car_repair"",""store"",""point_of_interest"",""establishment""]"
"""قطعات ماشين و اوراقى سيد حسن""","35.3275609","47.0140305","0101000020E6100000C1525DC0CB814740C1525DC0CB814740","""فرجه، سنندج""","164","[""car_repair"",""store"",""point_of_interest"",""establishment""]"
"""مجتمع تعمیرگاهی تاپ سرویس""","35.3097451","47.043217","0101000020E6100000CED0782288854740CED0782288854740","""Sanandaj""","165","[""car_repair"",""point_of_interest"",""establishment""]"
"""مجتمع تعمیراتی تاپ سرویس""","35.3098356","47.0432354","0101000020E6100000C683D2BC88854740C683D2BC88854740","""Sanandaj""","166","[""car_repair"",""point_of_interest"",""establishment""]"
"""فروشگاه مرکزی اتوتک(انواع قطعات خودرو)""","35.2703589","47.0067282","0101000020E6100000007B3B78DC804740007B3B78DC804740","""Sanandaj, Baharan 4/19""","167","[""car_repair"",""store"",""point_of_interest"",""establishment""]"
"""تعمیرگاه مکانیکی چیا""","35.2977217","47.0479595","0101000020E610000029047289238647402904728923864740","""Sanandaj, ئاساولە, Unnamed Road""","168","[""car_repair"",""point_of_interest"",""establishment""]"
"""تعمیرگاه اتومبیل ساسان""","35.3243476","47.0638257","0101000020E61000007912C7702B8847407912C7702B884740","""Naysar""","169","[""car_repair"",""point_of_interest"",""establishment""]"
"""Carwash JameJam""","35.297773","46.9968491","0101000020E610000005C655C0987F474005C655C0987F4740","""Sanandaj""","170","[""car_wash"",""point_of_interest"",""establishment""]"
"""Aria""","35.298075","47.0141966","0101000020E6100000735BB631D1814740735BB631D1814740","""Sanandaj, Geryashan Boulevard""","171","[""car_wash"",""point_of_interest"",""establishment""]"
"""کارواش بزرگ سنندج""","35.3080203","47.0284414","0101000020E61000001D6DC1F7A38347401D6DC1F7A3834740","""Sanandaj""","172","[""car_wash"",""point_of_interest"",""establishment""]"
"""تپه و گورستان شیخ محمد باقر""","35.3177901","46.985586","0101000020E61000009EB29AAE277E47409EB29AAE277E4740","""Sanandaj, Keshavarz Street""","173","[""cemetery"",""point_of_interest"",""establishment""]"
"""آرامگاه تایله""","35.3239701","47.0051708","0101000020E61000007272D06FA98047407272D06FA9804740","""Sanandaj""","174","[""cemetery"",""point_of_interest"",""establishment""]"
"""Shaikh Mohamad Bagher""","35.3177359","46.9856725","0101000020E6100000860838842A7E4740860838842A7E4740","""Sanandaj""","175","[""cemetery"",""premise"",""point_of_interest"",""establishment""]"
"""Tayla""","35.3233371","47.005415","0101000020E610000034F44F70B180474034F44F70B1804740","""Sanandaj""","176","[""cemetery"",""premise"",""point_of_interest"",""establishment""]"
"""بهشت محمّدی""","35.2984315","47.0406669","0101000020E6100000CDC3AE9234854740CDC3AE9234854740","""Sanandaj""","177","[""cemetery"",""premise"",""point_of_interest"",""establishment""]"
"""کلیسای سنندج""","35.3125568","47.0025269","0101000020E61000001E6E2CCD528047401E6E2CCD52804740","""Sanandaj""","178","[""church"",""place_of_worship"",""point_of_interest"",""establishment""]"
"""نایسر باااتر از مسجد حاج فیض الله""","35.330405","47.076336","0101000020E6100000F4C0C760C5894740F4C0C760C5894740","""Naysar""","179","[""church"",""place_of_worship"",""point_of_interest"",""establishment""]"
"""خوابگاه دانشکده یزدانپناه""","35.3371707","47.0124786","0101000020E61000002D7315E6988147402D7315E698814740","""Sanandaj""","180","[""church"",""premise"",""place_of_worship"",""point_of_interest"",""establishment""]"
"""Sanandaj Primary Municipality""","35.319527","46.9937817","0101000020E6100000816E1E3D347F4740816E1E3D347F4740","""Sanandaj, Imam""","181","[""city_hall"",""local_government_office"",""point_of_interest"",""establishment""]"
"""خدمات موتوری شهرداری""","35.266357","47.0130103","0101000020E61000006D814E52AA8147406D814E52AA814740","""Baharan Town""","182","[""city_hall"",""premise"",""local_government_office"",""point_of_interest"",""establishment""]"
"""کلکسیون ناز""","35.3083568","46.9980207","0101000020E6100000929D6D24BF7F4740929D6D24BF7F4740","""Sanandaj, Pasdaran""","183","[""clothing_store"",""store"",""point_of_interest"",""establishment""]"
"""پوشاک آدم برفی""","35.3145151","46.9992063","0101000020E6100000843AF6FDE57F4740843AF6FDE57F4740","""Sanandaj, Namaki Boulevard""","184","[""clothing_store"",""store"",""point_of_interest"",""establishment""]"
"""فروشگاه پوشاک تهران 7هزار""","35.3134328","47.00652","0101000020E61000008D62B9A5D58047408D62B9A5D5804740","""Sanandaj, خیابان نبش کوچه شوش, Enqelab""","185","[""clothing_store"",""store"",""point_of_interest"",""establishment""]"
"""اسپرت یاران پوشاک بهترینی ازپوشاک بانوان""","35.3106313","46.9754245","0101000020E6100000CC9BC3B5DA7C4740CC9BC3B5DA7C4740","""Sanandaj""","186","[""clothing_store"",""store"",""point_of_interest"",""establishment""]"
"""دزدگیرپوشاک،کیف وکفش""","35.3117623","46.9965087","0101000020E6100000FA56DA988D7F4740FA56DA988D7F4740","""میدان اقبال""","187","[""clothing_store"",""store"",""point_of_interest"",""establishment""]"
"""بوتیک لقمان جیوردانو""","35.3113765","46.9966844","0101000020E61000007937BB5A937F47407937BB5A937F4740","""Sanandaj""","188","[""clothing_store"",""store"",""point_of_interest"",""establishment""]"
"""پوشاک تیمور""","35.3131309","46.9970072","0101000020E610000032F092EE9D7F474032F092EE9D7F4740","""Sanandaj, Ferdowsi Street""","189","[""clothing_store"",""store"",""point_of_interest"",""establishment""]"
"""بوتیک تین تک""","35.3097429","46.997032","0101000020E610000061889CBE9E7F474061889CBE9E7F4740","""Sanandaj""","190","[""clothing_store"",""store"",""point_of_interest"",""establishment""]"
"""بوتیک چکاوک""","35.3094435","46.9973006","0101000020E6100000FEA3CA8BA77F4740FEA3CA8BA77F4740","""Sanandaj, Chakavak Boutique, Pasdaran""","191","[""clothing_store"",""store"",""point_of_interest"",""establishment""]"
"""Toranj Persian Clothing""","35.309516","46.9977449","0101000020E61000001AA0D91AB67F47401AA0D91AB67F4740","""Sanandaj, پاسداران""","192","[""clothing_store"",""store"",""point_of_interest"",""establishment""]"
"""مهر جامه نصر""","35.3142791","46.9979176","0101000020E6100000290D90C3BB7F4740290D90C3BB7F4740","""Sanandaj, ضلع شرقی پل فردوسی کوچه انصار1, Kordestan Boulevard""","193","[""clothing_store"",""store"",""point_of_interest"",""establishment""]"
"""خیاطی شین تال""","35.3147709","46.9971038","0101000020E6100000D1DBE918A17F4740D1DBE918A17F4740","""Sanandaj, Sabah Alley""","194","[""clothing_store"",""store"",""point_of_interest"",""establishment""]"
"""بوتیک ژاکامن""","35.308432","46.997712","0101000020E6100000D369DD06B57F4740D369DD06B57F4740","""Sanandaj, Pasdaran""","195","[""clothing_store"",""store"",""point_of_interest"",""establishment""]"
"""کیف و روسری کمند""","35.3148765","46.998413","0101000020E61000005C7347FFCB7F47405C7347FFCB7F4740","""Sanandaj, Namaki Boulevard""","196","[""clothing_store"",""store"",""point_of_interest"",""establishment""]"
"""عروس آریایی""","35.3079664","46.9990651","0101000020E610000099897D5DE17F474099897D5DE17F4740","""Sanandaj""","197","[""clothing_store"",""store"",""point_of_interest"",""establishment""]"
"""فروشگاه لباس زیپ""","35.3072572","46.9948165","0101000020E6100000B882A625567F4740B882A625567F4740","""Ta'rif Street""","198","[""clothing_store"",""store"",""point_of_interest"",""establishment""]"
"""روسری فروشی «رسولی»""","35.316112","46.9989112","0101000020E6100000D7CD7B52DC7F4740D7CD7B52DC7F4740","""Sanandaj""","199","[""clothing_store"",""store"",""point_of_interest"",""establishment""]"
"""Lux curtain""","35.3072462","46.9930831","0101000020E6100000EC5AD6581D7F4740EC5AD6581D7F4740","""Sanandaj""","200","[""clothing_store"",""store"",""point_of_interest"",""establishment""]"
"""بوتیک پارامونت""","35.3155495","47.0005759","0101000020E610000039D5FFDE1280474039D5FFDE12804740","""Sanandaj""","201","[""clothing_store"",""store"",""point_of_interest"",""establishment""]"
"""بازارچه فردوسی""","35.3167773","46.9988546","0101000020E6100000C43AB077DA7F4740C43AB077DA7F4740","""Sanandaj, Ferdowsi Street""","202","[""clothing_store"",""store"",""point_of_interest"",""establishment""]"
"""سوپرمارکت طناز""","35.321275","46.9879434","0101000020E610000049A6E8ED747E474049A6E8ED747E4740","""Sanandaj, بعثت, Kordestan Boulevard""","203","[""convenience_store"",""food"",""store"",""point_of_interest"",""establishment""]"
"""سوپرمارکت پرفکت""","35.3199532","47.0226592","0101000020E61000000D7A257FE68247400D7A257FE6824740","""Sanandaj, فرجه, Saghez Road Circular""","204","[""convenience_store"",""food"",""store"",""point_of_interest"",""establishment""]"
"""دادگاه تجدید نظر استان کردستان""","35.315419","46.9794719","0101000020E6100000EDECD0555F7D4740EDECD0555F7D4740","""بلوار شبلی -میدان امام شافعی""","205","[""courthouse"",""point_of_interest"",""establishment""]"
"""دادگستری کل کردستان""","35.303643","47.0049593","0101000020E6100000D1A79F81A2804740D1A79F81A2804740","""Sanandaj""","206","[""courthouse"",""premise"",""local_government_office"",""point_of_interest"",""establishment""]"
"""دکتر ویسی""","35.3117721","46.9921786","0101000020E6100000426557B5FF7E4740426557B5FF7E4740","""Sanandaj, Rose""","207","[""dentist"",""health"",""point_of_interest"",""establishment""]"
"""شرکت کیمیا کاشت اطبا""","35.3218748","46.9861647","0101000020E61000001C7C17A53A7E47401C7C17A53A7E4740","""Sanandaj""","208","[""dentist"",""health"",""point_of_interest"",""establishment""]"
"""مطب دندانپزشكى دكتر كاوه ذوالفقارنسب""","35.3120501","46.9953305","0101000020E61000000B1B65FD667F47400B1B65FD667F4740","""Sanandaj, Keshavarzi St""","209","[""dentist"",""health"",""point_of_interest"",""establishment""]"
"""مطب دندانپزشکى دکتر دوستکامى""","35.3098898","46.9975618","0101000020E6100000945EE51AB07F4740945EE51AB07F4740","""Sanandaj, کوچۀ یغموری""","210","[""dentist"",""health"",""point_of_interest"",""establishment""]"
"""کلینیک ارتودنسی دکتر افشین شادی""","35.3074077","46.9941785","0101000020E610000073F1B73D417F474073F1B73D417F4740","""Sanandaj, خیابان, Hasan Abad""","211","[""dentist"",""health"",""point_of_interest"",""establishment""]"
"""To buy electric scooters""","35.3175152","46.9945416","0101000020E610000078419F234D7F474078419F234D7F4740","""Sanandaj, Habibi Alley""","212","[""department_store"",""store"",""point_of_interest"",""establishment""]"
"""موبایل تکنوتل""","35.3052791","46.9995036","0101000020E6100000FC1DE5BBEF7F4740FC1DE5BBEF7F4740","""Sanandaj, پاسداران, مجتمع تجاری کردستان""","213","[""department_store"",""store"",""point_of_interest"",""establishment""]"
"""Almasian Shop""","35.3147159","46.9911686","0101000020E610000039E9D89CDE7E474039E9D89CDE7E4740","""Sanandaj, فروشگاه الماسیان, Keshavarz Street""","214","[""department_store"",""store"",""point_of_interest"",""establishment""]"
"""کلینیک اختصاصی حیوانات خانگی آدورینا""","35.3125761","46.998805","0101000020E6100000660A9DD7D87F4740660A9DD7D87F4740","""Sanandaj""","215","[""doctor"",""health"",""point_of_interest"",""establishment""]"
"""ساختمان پزشکان مدیکا""","35.308222","46.9973133","0101000020E6100000D2AE53F6A77F4740D2AE53F6A77F4740","""Sanandaj""","216","[""doctor"",""health"",""point_of_interest"",""establishment""]"
"""پزشکی قانونی""","35.3077445","46.9965565","0101000020E6100000E00ED4298F7F4740E00ED4298F7F4740","""Sanandaj""","217","[""doctor"",""health"",""point_of_interest"",""establishment""]"
"""رادیولوژی دکتر حدادیان""","35.3122159","46.996117","0101000020E6100000ABFE08C3807F4740ABFE08C3807F4740","""Sanandaj""","218","[""doctor"",""health"",""point_of_interest"",""establishment""]"
"""دکتر عارف رجبی متخصص مغز و اعصاب و ستون فقرات""","35.3124878","46.9969076","0101000020E6100000239111AB9A7F4740239111AB9A7F4740","""Sanandaj, Ferdowsi Street""","219","[""doctor"",""health"",""point_of_interest"",""establishment""]"
"""Dr Haddadian DentalMaxillofacial Radiology""","35.3125207","46.9954509","0101000020E6100000092362EF6A7F4740092362EF6A7F4740","""Sanandaj, Sajadi1 Alley""","220","[""doctor"",""health"",""point_of_interest"",""establishment""]"
"""دکتر رامین رجبی - جراح مغز و اعصاب""","35.3110459","46.9980973","0101000020E6100000EADCFEA6C17F4740EADCFEA6C17F4740","""Sanandaj""","221","[""doctor"",""health"",""point_of_interest"",""establishment""]"
"""madaen medical center""","35.3125237","46.9940383","0101000020E610000058BCA2A53C7F474058BCA2A53C7F4740","""Sanandaj, Keshavarz Street""","222","[""doctor"",""health"",""point_of_interest"",""establishment""]"
"""ساختمان پزشکان کوثر""","35.3099177","46.9976084","0101000020E6100000811BCEA1B17F4740811BCEA1B17F4740","""Sanandaj""","223","[""doctor"",""health"",""point_of_interest"",""establishment""]"
"""مطب دندانپزشکی دکتر دوستکامی""","35.3099018","46.9975946","0101000020E610000046D50A2EB17F474046D50A2EB17F4740","""Sanandaj""","224","[""doctor"",""health"",""point_of_interest"",""establishment""]"
"""drbehzad veisi""","35.3119169","46.992377","0101000020E6100000BA26A435067F4740BA26A435067F4740","""Sanandaj""","225","[""doctor"",""health"",""point_of_interest"",""establishment""]"
"""dr.behzad veisi""","35.3119538","46.9923911","0101000020E6100000B5ABEBAB067F4740B5ABEBAB067F4740","""Sanandaj, Golpar Alley""","226","[""doctor"",""health"",""point_of_interest"",""establishment""]"
"""مسعود امینی مشاور تغذیه و رژیم درمانی""","35.3081825","46.9972748","0101000020E6100000FF8F5DB3A67F4740FF8F5DB3A67F4740","""Sanandaj""","227","[""doctor"",""health"",""point_of_interest"",""establishment""]"
"""صبانت""","35.3079943","46.9974384","0101000020E610000025E3BD0FAC7F474025E3BD0FAC7F4740","""خیابان شهید تعریف،ساختمان فردوس،طبقه 3 ،واحد15""","228","[""doctor"",""health"",""point_of_interest"",""establishment""]"
"""شرکت آزطب تشخیص سنه دژ""","35.312696","46.9915415","0101000020E61000003A90F5D4EA7E47403A90F5D4EA7E4740","""Sanandaj""","229","[""doctor"",""health"",""point_of_interest"",""establishment""]"
"""Masoud Amini nutrition advice""","35.3077338","46.9963092","0101000020E61000001C5A530F877F47401C5A530F877F4740","""Sanandaj, Ta'rif Street""","230","[""doctor"",""health"",""point_of_interest"",""establishment""]"
"""مطب دكتر بهاره عزيزى""","35.3073888","46.994329","0101000020E6100000713B342C467F4740713B342C467F4740","""Sanandaj, خيابان شهيد تعريف ساختمان ژيوار ١""","231","[""doctor"",""health"",""point_of_interest"",""establishment""]"
"""مطب دکتر امینی فر""","35.3073874","46.9941476","0101000020E6100000CFB2823A407F4740CFB2823A407F4740","""Sanandaj, Ta'rif Street""","232","[""doctor"",""health"",""point_of_interest"",""establishment""]"
"""ساختمان پزشکان رازی""","35.3151391","46.9906128","0101000020E6100000DD7F7566CC7E4740DD7F7566CC7E4740","""Sanandaj""","233","[""doctor"",""health"",""point_of_interest"",""establishment""]"
"""madaen medical center""","35.3151684","46.9901531","0101000020E61000003A443756BD7E47403A443756BD7E4740","""Sanandaj, Keshavarz Street""","234","[""doctor"",""health"",""point_of_interest"",""establishment""]"
"""اورژانس کامپیوتر کردستان""","35.299258","46.991793","0101000020E61000006CB3B112F37E47406CB3B112F37E4740","""Sanandaj, Sa'di Street""","235","[""electronics_store"",""store"",""point_of_interest"",""establishment""]"
"""اسکوتر افرا""","35.3112819","46.9802226","0101000020E610000069E624EF777D474069E624EF777D4740","""Sanandaj, میدان کوهنورد""","236","[""electronics_store"",""store"",""point_of_interest"",""establishment""]"
"""گروه صنعتی کهربا""","35.3052318","47.0500822","0101000020E61000004D8EF117698647404D8EF11769864740","""Sanandaj""","237","[""electronics_store"",""store"",""point_of_interest"",""establishment""]"
"""موبایل بهمن شعبه ۱""","35.3123932","46.9964004","0101000020E610000056DC5D0C8A7F474056DC5D0C8A7F4740","""Sanandaj, Enqelab""","238","[""electronics_store"",""store"",""point_of_interest"",""establishment""]"
"""Sanandaj Apple Center""","35.309881","46.997318","0101000020E610000027DBC01DA87F474027DBC01DA87F4740","""Sanandaj""","239","[""electronics_store"",""store"",""point_of_interest"",""establishment""]"
"""Mobile Plus""","35.3094802","46.9976674","0101000020E610000085A4BB90B37F474085A4BB90B37F4740","""Sanandaj""","240","[""electronics_store"",""store"",""point_of_interest"",""establishment""]"
"""موبایل پلاس""","35.3092813","46.9976939","0101000020E610000096F5076FB47F474096F5076FB47F4740","""Sanandaj""","241","[""electronics_store"",""store"",""point_of_interest"",""establishment""]"
"""Silver Apple""","35.3089442","46.9976885","0101000020E6100000338CBB41B47F4740338CBB41B47F4740","""Sanandaj, Pasdaran""","242","[""electronics_store"",""store"",""point_of_interest"",""establishment""]"
"""موبایل آرتیما شعبه ۲""","35.3152259","46.998116","0101000020E6100000A3CEDC43C27F4740A3CEDC43C27F4740","""Sanandaj, Ferdowsi Street""","243","[""electronics_store"",""store"",""point_of_interest"",""establishment""]"
"""یکتاپرداز نمایندگی فروش ایترنت مخابرات""","35.3100824","47.000708","0101000020E61000003C6C2233178047403C6C223317804740","""Sanandaj, Sayed Qutb""","244","[""electronics_store"",""store"",""point_of_interest"",""establishment""]"
"""Frooshgahe Digital Barjavand""","35.3104972","47.0010151","0101000020E6100000ADA6464321804740ADA6464321804740","""Sanandaj, Felestin Street""","245","[""electronics_store"",""store"",""point_of_interest"",""establishment""]"
"""شركت كامپيوتري كامتك""","35.3143088","46.9916367","0101000020E6100000B6018EF3ED7E4740B6018EF3ED7E4740","""Sanandaj""","246","[""electronics_store"",""store"",""point_of_interest"",""establishment""]"
"""فروشگاه حاج رشید زندسلیمی""","35.3158368","46.9988839","0101000020E61000001F80796DDB7F47401F80796DDB7F4740","""Sanandaj, Ferdowsi Street, Sanandaj Plaza""","247","[""electronics_store"",""store"",""point_of_interest"",""establishment""]"
"""فروشگاه لوازم جانبی کامران""","35.3158647","46.9986729","0101000020E610000064737A83D47F474064737A83D47F4740","""Sanandaj""","248","[""electronics_store"",""store"",""point_of_interest"",""establishment""]"
"""روژ سیستم نمایندگی فروش اینترنت مخابرات""","35.3095111","47.0024675","0101000020E6100000C5E6E3DA50804740C5E6E3DA50804740","""Sanandaj, Felestin Street""","249","[""electronics_store"",""store"",""point_of_interest"",""establishment""]"
"""Samsung Center | نمايندگي رسمي محصولات سامسونگ""","35.3118821","46.9892449","0101000020E61000000E9EAE939F7E47400E9EAE939F7E4740","""Sanandaj, Shebli""","250","[""electronics_store"",""store"",""point_of_interest"",""establishment""]"
"""تابلو ساز خط ( شعبه ندارد )""","35.3069417","46.9923288","0101000020E610000081704FA1047F474081704FA1047F4740","""Sanandaj, Hasan Abad""","251","[""electronics_store"",""store"",""point_of_interest"",""establishment""]"
"""کارگاه تابلو ساز خط""","35.3071778","46.9920273","0101000020E61000009D1E25C0FA7E47409D1E25C0FA7E4740","""Sanandaj, کوچه ی عارف قزوینی""","252","[""electronics_store"",""store"",""point_of_interest"",""establishment""]"
"""فروشگاه خانه هوشمند آرين | Arian Smart Home""","35.3128651","46.9891235","0101000020E61000003F1A4E999B7E47403F1A4E999B7E4740","""Sanandaj, Mardokh Street""","253","[""electronics_store"",""store"",""point_of_interest"",""establishment""]"
"""تعمیرات دیباگ""","35.3055138","46.9993511","0101000020E61000005EDCA1BCEA7F47405EDCA1BCEA7F4740","""Sanandaj, Pasdaran Street""","254","[""electronics_store"",""store"",""point_of_interest"",""establishment""]"
"""Fire Department""","35.317844","46.9706908","0101000020E610000097439C983F7C474097439C983F7C4740","""Sanandaj, Shebli""","255","[""fire_station"",""point_of_interest"",""establishment""]"
"""Fire Aysgah spring (3)""","35.2679725","46.989314","0101000020E6100000CBBC55D7A17E4740CBBC55D7A17E4740","""Sanandaj""","256","[""fire_station"",""point_of_interest"",""establishment""]"
"""دفتر مرکزی مبلمان موراشین""","35.312003","47.0271733","0101000020E61000008669296A7A8347408669296A7A834740","""Sanandaj""","257","[""furniture_store"",""home_goods_store"",""store"",""point_of_interest"",""establishment""]"
"""Montakhab Office Furniture Store""","35.3090318","47.0051015","0101000020E61000008BD47B2AA78047408BD47B2AA7804740","""Sanandaj, سنندج، بلوار کردستان، نرسیده به ورودی خ فلسطین، حد فاصل پل بعثت و جانبازان، ساختمان الین""","258","[""furniture_store"",""home_goods_store"",""store"",""point_of_interest"",""establishment""]"
"""مبل آسایش""","35.3036286","46.9966699","0101000020E61000002CB418E1927F47402CB418E1927F4740","""Sanandaj, Hafez Street""","259","[""furniture_store"",""home_goods_store"",""store"",""point_of_interest"",""establishment""]"
"""فروشگاه ست""","35.3022295","46.9994111","0101000020E610000034E1F2B3EC7F474034E1F2B3EC7F4740","""Sanandaj""","260","[""furniture_store"",""home_goods_store"",""store"",""point_of_interest"",""establishment""]"
"""كالاي خواب كاتن باكس و تشك زست""","35.3111738","46.9796252","0101000020E6100000332BCA5B647D4740332BCA5B647D4740","""Sanandaj, Chamran Boulevard""","261","[""furniture_store"",""home_goods_store"",""store"",""point_of_interest"",""establishment""]"
"""فروشگاه خانگی و صوتی تصویری""","35.3149238","47.0211571","0101000020E6100000034A9E46B5824740034A9E46B5824740","""Sanandaj, فرجه, Ali Asghar Kordestani Street""","262","[""furniture_store"",""home_goods_store"",""store"",""point_of_interest"",""establishment""]"
"""فروشگاە کالای خواب ارامش""","35.2704917","46.9956218","0101000020E6100000A317FF88707F4740A317FF88707F4740","""Baharan Town, Sanandaj""","263","[""furniture_store"",""home_goods_store"",""store"",""point_of_interest"",""establishment""]"
"""سازمان اتوبوسرانی سنندج""","35.3228811","47.0037694","0101000020E6100000DFDC04847B804740DFDC04847B804740","""Sanandaj""","264","[""gas_station"",""point_of_interest"",""establishment""]"
"""پمپ بنزین""","35.319104","46.9812888","0101000020E61000002EF713DF9A7D47402EF713DF9A7D4740","""Sanandaj""","265","[""gas_station"",""point_of_interest"",""establishment""]"
"""Gas Station""","35.3002071","46.9842365","0101000020E6100000C5832D76FB7D4740C5832D76FB7D4740","""Sanandaj""","266","[""gas_station"",""point_of_interest"",""establishment""]"
"""جایگاه CNG اتحاد""","35.3274376","47.0078256","0101000020E61000002909E46D008147402909E46D00814740","""Sanandaj""","267","[""gas_station"",""point_of_interest"",""establishment""]"
"""Petrol Station""","35.3285024","47.0064774","0101000020E6100000E1945E40D4804740E1945E40D4804740","""Sanandaj""","268","[""gas_station"",""point_of_interest"",""establishment""]"
"""پمپ بنزین جایگاه ستاره ها""","35.329308","46.9874595","0101000020E6100000F04FA912657E4740F04FA912657E4740","""Sanandaj, جوارپادگان 28""","269","[""gas_station"",""point_of_interest"",""establishment""]"
"""پمپ گازCNG""","35.2910194","46.9934295","0101000020E6100000D9B0A6B2287F4740D9B0A6B2287F4740","""Sanandaj""","270","[""gas_station"",""point_of_interest"",""establishment""]"
"""پمپ بنزین""","35.2762119","47.0038012","0101000020E6100000C0D7C68E7C804740C0D7C68E7C804740","""Baharan Town, Sanandaj""","271","[""gas_station"",""point_of_interest"",""establishment""]"
"""110""","35.3100935","47.0415029","0101000020E610000036188FF74F85474036188FF74F854740","""Sanandaj""","272","[""gas_station"",""point_of_interest"",""establishment""]"
"""Arman""","35.2749876","47.0035749","0101000020E6100000114B6F2475804740114B6F2475804740","""Baharan Town, Zakaryaye Razi Blvd.""","273","[""gas_station"",""point_of_interest"",""establishment""]"
"""C.N.G. Kimiya""","35.273652","47.008377","0101000020E6100000EF845E7F12814740EF845E7F12814740","""Sanandaj, Pasdaran Boulevard""","274","[""gas_station"",""point_of_interest"",""establishment""]"
"""Gas Station""","35.3517132","47.011699","0101000020E6100000AD32535A7F814740AD32535A7F814740","""21""","275","[""gas_station"",""point_of_interest"",""establishment""]"
"""C.N.G.""","35.2700253","47.0042758","0101000020E61000000495021C8C8047400495021C8C804740","""Baharan Town, 22 Bahman Boulevard""","276","[""gas_station"",""point_of_interest"",""establishment""]"
"""Baharan""","35.2663607","47.0110506","0101000020E6100000F3CC261B6A814740F3CC261B6A814740","""Sanandaj, Pasdaran Boulevard""","277","[""gas_station"",""point_of_interest"",""establishment""]"
"""CNG""","35.2650366","46.98892","0101000020E61000001F2E39EE947E47401F2E39EE947E4740","""Baharan Town, Sanandaj""","278","[""gas_station"",""point_of_interest"",""establishment""]"
"""Petrol & C.N.G""","35.3091648","47.0540067","0101000020E6100000E62109B1E9864740E62109B1E9864740","""Sanandaj, سنندج - همدان""","279","[""gas_station"",""point_of_interest"",""establishment""]"
"""پمپ گازCNG""","35.2661231","47.0145505","0101000020E6100000FAD170CADC814740FAD170CADC814740","""Sanandaj, Saheli Circular""","280","[""gas_station"",""point_of_interest"",""establishment""]"
"""CNGپمپ گاز""","35.2636913","46.9998688","0101000020E610000038256AB3FB7F474038256AB3FB7F4740","""Sanandaj, Baharan Town, Ta'von Boulevard""","281","[""gas_station"",""point_of_interest"",""establishment""]"
"""جایگاه زیباشهر""","35.2631501","46.9947481","0101000020E61000000BA1DEE7537F47400BA1DEE7537F4740","""Sanandaj, Baharan Town, Khaje Abdollah Ansari Street""","282","[""gas_station"",""point_of_interest"",""establishment""]"
"""C.N.G شهردارى""","35.2580439","47.0085239","0101000020E610000000DEA74F1781474000DEA74F17814740","""Sanandaj, Baharan Town, خیابان دکتر باهنر""","283","[""gas_station"",""point_of_interest"",""establishment""]"
"""Haidari's Gym""","35.2709989","47.0045972","0101000020E61000009BD31BA4968047409BD31BA496804740","""Baharan Town, 17th Alley""","284","[""gym"",""health"",""point_of_interest"",""establishment""]"
"""Shahab Sport Complex""","35.2851527","47.0721245","0101000020E6100000C55E28603B894740C55E28603B894740","""Kurdistan Province""","285","[""gym"",""health"",""point_of_interest"",""establishment""]"
"""مجموعه ورزشی استقلال""","35.3069173","46.9970548","0101000020E6100000F028DF7D9F7F4740F028DF7D9F7F4740","""Sanandaj, Ta'rif Street""","286","[""gym"",""health"",""point_of_interest"",""establishment""]"
"""باشگاه البرز""","35.312733","47.002832","0101000020E6100000EDB089CC5C804740EDB089CC5C804740","""Sanandaj, Namaki Boulevard""","287","[""gym"",""health"",""point_of_interest"",""establishment""]"
"""باشگاه بدنسازی برتر""","35.3060487","46.9895222","0101000020E61000003FD5D7A9A87E47403FD5D7A9A87E4740","""Sanandaj""","288","[""gym"",""health"",""point_of_interest"",""establishment""]"
"""باشگاه بدنسازی آرین""","35.308701","47.0055708","0101000020E610000002E8418BB680474002E8418BB6804740","""Sanandaj""","289","[""gym"",""health"",""point_of_interest"",""establishment""]"
"""Sanandaj health center""","35.3193735","47.0005631","0101000020E6100000CD0AA07312804740CD0AA07312804740","""Sanandaj, Taleghani Street""","290","[""gym"",""health"",""point_of_interest"",""establishment""]"
"""Amin Footbal Stadium""","35.3185063","47.0059765","0101000020E6100000B40584D6C3804740B40584D6C3804740","""Sanandaj""","291","[""gym"",""health"",""point_of_interest"",""establishment""]"
"""Oxigen Royal Fitness Academy""","35.300397","46.995845","0101000020E61000004C7155D9777F47404C7155D9777F4740","""Sanandaj""","292","[""gym"",""health"",""point_of_interest"",""establishment""]"
"""مجموعه ورزشي آزادي""","35.3260915","46.986506","0101000020E610000065A71FD4457E474065A71FD4457E4740","""بعثت، سنندج""","293","[""gym"",""health"",""point_of_interest"",""establishment""]"
"""استخر انتظام""","35.3002367","47.0108229","0101000020E610000021C610A56281474021C610A562814740","""Sanandaj""","294","[""gym"",""health"",""point_of_interest"",""establishment""]"
"""Entezam""","35.2999959","47.010828","0101000020E6100000C7F0D8CF62814740C7F0D8CF62814740","""Sanandaj, Geryashan Boulevard""","295","[""gym"",""health"",""point_of_interest"",""establishment""]"
"""Sport Club""","35.2931288","46.990984","0101000020E6100000FC6D4F90D87E4740FC6D4F90D87E4740","""Sanandaj""","296","[""gym"",""health"",""point_of_interest"",""establishment""]"
"""باشگاه ورزشی بانک ملی""","35.2929895","46.9910825","0101000020E6100000A79196CADB7E4740A79196CADB7E4740","""Sanandaj, کوی فرهنگیان""","297","[""gym"",""health"",""point_of_interest"",""establishment""]"
"""باشگاه ورزشی زنانه تریسا""","35.2863972","46.9842784","0101000020E61000006214A9D5FC7D47406214A9D5FC7D4740","""Zagros Town, Sanandaj""","298","[""gym"",""health"",""point_of_interest"",""establishment""]"
"""Zolfaqarnasab Footbal Academy""","35.2833549","46.9867568","0101000020E6100000838DFC0B4E7E4740838DFC0B4E7E4740","""Zagros Town, Sanandaj""","299","[""gym"",""health"",""point_of_interest"",""establishment""]"
"""آکادمی فوتبال دکتر بیژن ذوالفقارنسب""","35.2831122","46.986621","0101000020E6100000FE45D098497E4740FE45D098497E4740","""Sanandaj, Zagros Town, خيابان سيروان""","300","[""gym"",""health"",""point_of_interest"",""establishment""]"
"""باشگاه ورزشی بانوان به رزین""","35.2822235","46.9880128","0101000020E6100000C3031434777E4740C3031434777E4740","""Zagros Town, Sanandaj""","301","[""gym"",""health"",""point_of_interest"",""establishment""]"
"""باشگاه ورزشی به رزین""","35.2821761","46.9880054","0101000020E6100000BDA200F6767E4740BDA200F6767E4740","""Zagros Town, Sanandaj""","302","[""gym"",""health"",""point_of_interest"",""establishment""]"
"""سالن پینگ پنگ سنندج""","35.2704629","47.0049579","0101000020E6100000AD2DE175A2804740AD2DE175A2804740","""Baharan Town, Sanandaj""","303","[""gym"",""health"",""point_of_interest"",""establishment""]"
"""سالن زیبایی مانگو""","35.3115587","46.9932662","0101000020E6100000719CCA58237F4740719CCA58237F4740","""Sanandaj, 2, Zhalleh Alley""","304","[""hair_care"",""point_of_interest"",""establishment""]"
"""آرایشگاه شریف""","35.3026648","46.9943438","0101000020E61000007DFD5AA8467F47407DFD5AA8467F4740","""Sanandaj, Ovalan Street""","305","[""hair_care"",""health"",""point_of_interest"",""establishment""]"
"""Modex hairdresser""","35.3112736","46.9780494","0101000020E6100000AC6F05B9307D4740AC6F05B9307D4740","""Sanandaj""","306","[""hair_care"",""point_of_interest"",""establishment""]"
"""پیرایش کاردین""","35.3292916","46.9937017","0101000020E610000062BD079E317F474062BD079E317F4740","""Sanandaj""","307","[""hair_care"",""health"",""point_of_interest"",""establishment""]"
"""آرایشگا خالق زیبایی""","35.2938669","46.9951015","0101000020E6100000AB59677C5F7F4740AB59677C5F7F4740","""Sanandaj, Tahmasbi Street""","308","[""hair_care"",""point_of_interest"",""establishment""]"
"""آرایشگاه مردانه حشمت و کمال""","35.3164121","47.0218706","0101000020E610000039DFE3A7CC82474039DFE3A7CC824740","""فرجه، سنندج""","309","[""hair_care"",""health"",""point_of_interest"",""establishment""]"
"""ارایشگاه مردانه مجید""","35.3199882","47.0236945","0101000020E61000002B4CDF6B088347402B4CDF6B08834740","""Sanandaj, فرجه, Saghez Road Circular""","310","[""hair_care"",""health"",""point_of_interest"",""establishment""]"
"""آرایشگاه گل پری""","35.2846834","46.9841158","0101000020E61000000A3DAC81F77D47400A3DAC81F77D4740","""Sanandaj, زاگرس""","311","[""hair_care"",""point_of_interest"",""establishment""]"
"""آرایشگاه امیر""","35.287346","47.0259425","0101000020E6100000CC89761552834740CC89761552834740","""Sanandaj, Baharan Town, Nima 2 Alley""","312","[""hair_care"",""health"",""point_of_interest"",""establishment""]"
"""ابزارفروشی بهاران- ولدی""","35.2681805","46.9929852","0101000020E6100000BDB497231A7F4740BDB497231A7F4740","""Baharan Town, Sanandaj""","313","[""hardware_store"",""store"",""point_of_interest"",""establishment""]"
"""دفتر مرکزی مبلمان موراشین""","35.312003","47.0271733","0101000020E61000008669296A7A8347408669296A7A834740","""Sanandaj""","314","[""furniture_store"",""home_goods_store"",""store"",""point_of_interest"",""establishment""]"
"""Sarmavaz""","35.3138341","46.9978778","0101000020E6100000C433B275BA7F4740C433B275BA7F4740","""Sanandaj, سنندج بلوار كردستان ضلع شرقي پل فردوسي, Kordestan Boulevard""","315","[""home_goods_store"",""store"",""point_of_interest"",""establishment""]"
"""شرکت هورام سازه گستر""","35.3086115","46.9891776","0101000020E6100000C7F7205F9D7E4740C7F7205F9D7E4740","""Sanandaj, Afrooz Alley""","316","[""home_goods_store"",""store"",""point_of_interest"",""establishment""]"
"""Montakhab Office Furniture Store""","35.3090318","47.0051015","0101000020E61000008BD47B2AA78047408BD47B2AA7804740","""Sanandaj, سنندج، بلوار کردستان، نرسیده به ورودی خ فلسطین، حد فاصل پل بعثت و جانبازان، ساختمان الین""","317","[""furniture_store"",""home_goods_store"",""store"",""point_of_interest"",""establishment""]"
"""چوبکار""","35.3192507","46.9743606","0101000020E610000066C11FD9B77C474066C11FD9B77C4740","""Sanandaj, Khezreh Zendeh Boulevard""","318","[""general_contractor"",""home_goods_store"",""store"",""point_of_interest"",""establishment""]"
"""فروشگاه برادران زمانی""","35.3175004","46.9676321","0101000020E6100000A807605EDB7B4740A807605EDB7B4740","""Sanandaj, Khezreh Zendeh Street""","319","[""home_goods_store"",""store"",""point_of_interest"",""establishment""]"
"""فرشاد سیجانیوندی""","35.3115492","46.9961502","0101000020E6100000B27389D9817F4740B27389D9817F4740","""Sanandaj, میدان ازادی""","320","[""home_goods_store"",""store"",""point_of_interest"",""establishment""]"
"""تابلوساز بـــهـــروز""","35.3129836","46.9933379","0101000020E61000004B3041B2257F47404B3041B2257F4740","""Sanandaj, Keshavarz Street""","321","[""home_goods_store"",""store"",""point_of_interest"",""establishment""]"
"""گالری قاب افشین""","35.3130977","46.9929963","0101000020E610000044C6B4801A7F474044C6B4801A7F4740","""Sanandaj""","322","[""home_goods_store"",""store"",""point_of_interest"",""establishment""]"
"""Irak Plastik""","35.3083628","46.9944705","0101000020E61000001D2B31CF4A7F47401D2B31CF4A7F4740","""Sanandaj, Hasan Abad""","323","[""home_goods_store"",""store"",""point_of_interest"",""establishment""]"
"""پتوسرای گلها""","35.3146286","46.9991412","0101000020E6100000070BDDDBE37F4740070BDDDBE37F4740","""Sanandaj""","324","[""home_goods_store"",""store"",""point_of_interest"",""establishment""]"
"""موبایل آرتیما شعبه ۱""","35.3153167","46.9981572","0101000020E61000002B22799DC37F47402B22799DC37F4740","""Sanandaj""","325","[""home_goods_store"",""store"",""point_of_interest"",""establishment""]"
"""فروشگاه کورپه.MDF""","35.3140932","46.991851","0101000020E6100000A0C03BF9F47E4740A0C03BF9F47E4740","""Sanandaj""","326","[""home_goods_store"",""store"",""point_of_interest"",""establishment""]"
"""نمایندگی شرکت ایراک پلاستیک ترکیه""","35.3077114","46.9940937","0101000020E61000006F545D763E7F47406F545D763E7F4740","""Sanandaj""","327","[""home_goods_store"",""store"",""point_of_interest"",""establishment""]"
"""گالری پرده نسیم""","35.3090165","47.0005176","0101000020E61000004589F1F5108047404589F1F510804740","""Sanandaj, Sayed Qutb""","328","[""home_goods_store"",""store"",""point_of_interest"",""establishment""]"
"""فروشگاه لوازم خانگی آرام""","35.316689","46.9994514","0101000020E610000080780206EE7F474080780206EE7F4740","""Sanandaj""","329","[""home_goods_store"",""store"",""point_of_interest"",""establishment""]"
"""فروشگاه لوازم خانگی صمدی""","35.3165308","46.9998235","0101000020E6100000D9226937FA7F4740D9226937FA7F4740","""Sanandaj""","330","[""home_goods_store"",""store"",""point_of_interest"",""establishment""]"
"""فروشگاه اشرف""","35.31666","47.0001538","0101000020E61000002DFC2A0A058047402DFC2A0A05804740","""Sanandaj""","331","[""home_goods_store"",""store"",""point_of_interest"",""establishment""]"
"""فروشگاه نقش جهان""","35.3073904","46.9896791","0101000020E6100000710404CEAD7E4740710404CEAD7E4740","""Sanandaj, Fajr Boulevard""","332","[""home_goods_store"",""store"",""point_of_interest"",""establishment""]"
"""فروشگاه روژان""","35.307371","46.989557","0101000020E61000009143C4CDA97E47409143C4CDA97E4740","""Sanandaj""","333","[""home_goods_store"",""store"",""point_of_interest"",""establishment""]"
"""Be'sat Hospital""","35.3151914","46.9881891","0101000020E6100000C061FDFA7C7E4740C061FDFA7C7E4740","""Sanandaj, Khosro Abad, Keshavarz Street""","334","[""hospital"",""point_of_interest"",""establishment""]"
"""Qods Hospita;""","35.3218748","46.9861647","0101000020E61000001C7C17A53A7E47401C7C17A53A7E4740","""Sanandaj""","335","[""hospital"",""point_of_interest"",""establishment""]"
"""tohid emergency""","35.3011752","47.0174848","0101000020E6100000AA1622F13C824740AA1622F13C824740","""Sanandaj""","336","[""hospital"",""point_of_interest"",""establishment""]"
"""مطب فیزیوتراپی افق""","35.3099658","46.9976711","0101000020E61000000B55C5AFB37F47400B55C5AFB37F4740","""Sanandaj""","337","[""hospital"",""point_of_interest"",""establishment""]"
"""داروخانه سينا""","35.3113896","46.9933614","0101000020E6100000EC0D6377267F4740EC0D6377267F4740","""Sanandaj, Abidar Street""","338","[""hospital"",""point_of_interest"",""establishment""]"
"""adorina pet clinic""","35.3125223","46.9988549","0101000020E61000008479347ADA7F47408479347ADA7F4740","""Sanandaj""","339","[""hospital"",""point_of_interest"",""establishment""]"
"""مطب دکتر ساعدی""","35.3141129","46.9975309","0101000020E6100000EE1FB017AF7F4740EE1FB017AF7F4740","""فردوسی""","340","[""hospital"",""point_of_interest"",""establishment""]"
"""Hair beauty gazelle skin clinic doctor Aghaie""","35.3074624","46.9943297","0101000020E610000081781332467F474081781332467F4740","""Sanandaj, Ta'rif Street""","341","[""hospital"",""health"",""point_of_interest"",""establishment""]"
"""کلینیک ویژه بعثت سنندج""","35.3153887","46.9886418","0101000020E6100000B33A83D08B7E4740B33A83D08B7E4740","""Sanandaj, بیمارستان بعثت""","342","[""hospital"",""point_of_interest"",""establishment""]"
"""مرکز بهداشت، سنندج""","35.3195877","47.0001273","0101000020E61000001AABDE2B048047401AABDE2B04804740","""Sanandaj""","343","[""hospital"",""point_of_interest"",""establishment""]"
"""مركز بهداشت قدس""","35.3190075","47.0016108","0101000020E610000001A95EC83480474001A95EC834804740","""Sanandaj, چهارباغ""","344","[""hospital"",""point_of_interest"",""establishment""]"
"""کلینیک خانواده (وابسته به بیمارستان قدس)""","35.3049605","47.0031219","0101000020E61000005F33654C668047405F33654C66804740","""Sanandaj""","345","[""hospital"",""point_of_interest"",""establishment""]"
"""مركز بهداشت سميه""","35.3225951","46.9927491","0101000020E610000014D10A67127F474014D10A67127F4740","""Sanandaj, شێخان""","346","[""hospital"",""point_of_interest"",""establishment""]"
"""ام ار ای شهید قاضی""","35.299514","46.9975564","0101000020E61000002FF598EDAF7F47402FF598EDAF7F4740","""Sanandaj""","347","[""hospital"",""point_of_interest"",""establishment""]"
"""نه خوشخانه ی سیدالشهدایی( Dr.sayedoshohadaee Hospital)""","35.3138815","46.9761638","0101000020E6100000FF4476EFF27C4740FF4476EFF27C4740","""Mobarak Abad, Sanandaj""","348","[""hospital"",""point_of_interest"",""establishment""]"
"""بیمارستان دکتر سیدالشهدائی""","35.3138864","46.9759619","0101000020E61000002C52CD51EC7C47402C52CD51EC7C4740","""Sanandaj, Mobarak Abad, Mobarak Abad Street""","349","[""hospital"",""point_of_interest"",""establishment""]"
"""بیمارستان تخصصی و فوق تخصصی سیدالشهدایی""","35.3139346","46.9759297","0101000020E6100000F958B043EB7C4740F958B043EB7C4740","""Sanandaj, Mobarak Abad""","350","[""hospital"",""point_of_interest"",""establishment""]"
"""Sayed Shohaday Hospital""","35.3139083","46.9759049","0101000020E6100000CAC0A673EA7C4740CAC0A673EA7C4740","""Mobarak Abad, Sanandaj""","351","[""hospital"",""point_of_interest"",""establishment""]"
"""درمانگاه وحدت (VAHDAT CLINIC)""","35.3167281","46.9731379","0101000020E6100000C27F5FC88F7C4740C27F5FC88F7C4740","""Mobarak Abad, Sanandaj""","352","[""hospital"",""point_of_interest"",""establishment""]"
"""Tohid Hospital""","35.3011639","47.0187835","0101000020E61000002A1A6B7F678247402A1A6B7F67824740","""Sanandaj, Taohid""","353","[""hospital"",""point_of_interest"",""establishment""]"
"""Parsian Insurance Company""","35.3022566","46.9997293","0101000020E6100000302D3421F77F4740302D3421F77F4740","""Sanandaj""","354","[""insurance_agency"",""point_of_interest"",""establishment""]"
"""Asia Insurance Agents nutty Code 26093""","35.3165807","47.0088566","0101000020E610000046AD8B362281474046AD8B3622814740","""Sanandaj, Golshan Street""","355","[""insurance_agency"",""point_of_interest"",""establishment""]"
"""بیمه پارسیان نمایندگی ساعد""","35.3148275","46.9805431","0101000020E6100000C368B16F827D4740C368B16F827D4740","""Sanandaj""","356","[""insurance_agency"",""point_of_interest"",""establishment""]"
"""Novin""","35.3270086","46.9919667","0101000020E61000004B9CCBC3F87E47404B9CCBC3F87E4740","""Sanandaj, 17 Shahrivar""","357","[""insurance_agency"",""point_of_interest"",""establishment""]"
"""Razi Insurance - Agents Zarei""","35.2682607","46.9907556","0101000020E6100000182A5A14D17E4740182A5A14D17E4740","""Baharan Town, Sanandaj""","358","[""insurance_agency"",""point_of_interest"",""establishment""]"
"""پاساژ جواهر""","35.3178518","46.9976666","0101000020E6100000E0A7058AB37F4740E0A7058AB37F4740","""Sanandaj, Emam St, No. 90""","359","[""jewelry_store"",""store"",""point_of_interest"",""establishment""]"
"""طلا فروشی فرید""","35.3180823","46.9967836","0101000020E61000003698E19A967F47403698E19A967F4740","""Sanandaj, Emam Street, No. 90""","360","[""jewelry_store"",""store"",""point_of_interest"",""establishment""]"
"""خشک شویی ژاندارک""","35.3264309","47.0006892","0101000020E6100000EEBA6D9516804740EEBA6D9516804740","""Sanandaj, Shohada Street""","361","[""laundry"",""point_of_interest"",""establishment""]"
"""خشکشویی اصلانی""","35.3139926","47.0151694","0101000020E610000031732612F181474031732612F1814740","""Sanandaj, Ali Asghar Kordestani Street""","362","[""laundry"",""point_of_interest"",""establishment""]"
"""خشک شویی اصلانی""","35.3140237","47.0151953","0101000020E6100000C4466AEBF1814740C4466AEBF1814740","""Sanandaj""","363","[""laundry"",""point_of_interest"",""establishment""]"
"""خشکشویی سیف اله اصلانی""","35.3140218","47.015265","0101000020E610000000E31934F481474000E31934F4814740","""سنندج چهارراه, Khayyam Street""","364","[""laundry"",""point_of_interest"",""establishment""]"
"""مجتمع قالیشویی شین""","35.227436","47.0031716","0101000020E610000052234FED6780474052234FED67804740","""Sanandaj""","365","[""laundry"",""point_of_interest"",""establishment""]"
"""دفتر وکالت کاوه اسدی وپینه چی""","35.3109999","46.9981486","0101000020E61000002AC65455C37F47402AC65455C37F4740","""Sanandaj""","366","[""lawyer"",""point_of_interest"",""establishment""]"
"""کتابخانه عمومی شهید مطهری""","35.3051622","47.0012381","0101000020E61000002B81EF91288047402B81EF9128804740","""Sanandaj""","367","[""library"",""point_of_interest"",""establishment""]"
"""University of Kurdistan Library""","35.2785408","46.9954549","0101000020E61000004B12F0106B7F47404B12F0106B7F4740","""Sanandaj""","368","[""library"",""point_of_interest"",""establishment""]"
"""كتابخانه مركزي""","35.2784317","46.995315","0101000020E6100000F11B5F7B667F4740F11B5F7B667F4740","""Iran""","369","[""library"",""point_of_interest"",""establishment""]"
"""کتابخانه""","35.2750872","46.9925675","0101000020E610000047C9AB730C7F474047C9AB730C7F4740","""Sanandaj""","370","[""library"",""point_of_interest"",""establishment""]"
"""کتابخانه بهاران""","35.270974","46.9887249","0101000020E6100000D51E9B898E7E4740D51E9B898E7E4740","""Baharan Town, Sanandaj""","371","[""library"",""point_of_interest"",""establishment""]"
"""Heja Motion""","35.3071255","46.9998474","0101000020E6100000CEFEE5FFFA7F4740CEFEE5FFFA7F4740","""Sanandaj, 12 Ordibehesht Street""","372","[""local_government_office"",""point_of_interest"",""establishment""]"
"""Sanandaj Primary Municipality""","35.319527","46.9937817","0101000020E6100000816E1E3D347F4740816E1E3D347F4740","""Sanandaj, Imam""","373","[""city_hall"",""local_government_office"",""point_of_interest"",""establishment""]"
"""مدیریت آموزش و پرورش ناحیه دو سنندج""","35.3177722","46.9874231","0101000020E610000050E850E1637E474050E850E1637E4740","""Sanandaj""","374","[""local_government_office"",""point_of_interest"",""establishment""]"
"""Legal Department Relief Committee""","35.307403","47.009907","0101000020E61000003280F0A1448147403280F0A144814740","""Sanandaj, سایت اداری""","375","[""local_government_office"",""point_of_interest"",""establishment""]"
"""فناوري اطلاعات بروز""","35.3218748","46.9861647","0101000020E61000001C7C17A53A7E47401C7C17A53A7E4740","""Sanandaj""","376","[""local_government_office"",""point_of_interest"",""establishment""]"
"""ایستگاه راهنمایی و رانندگی آزادی""","35.3119472","46.9959712","0101000020E610000002E1F9FB7B7F474002E1F9FB7B7F4740","""Sanandaj, میدان اقبال""","377","[""local_government_office"",""point_of_interest"",""establishment""]"
"""فرمانداری سنندج""","35.3113694","46.9985462","0101000020E6100000C545A45CD07F4740C545A45CD07F4740","""Sanandaj, Felestin Street""","378","[""local_government_office"",""point_of_interest"",""establishment""]"
"""شرکت ارتباطات زیرساخت کردستان""","35.3130802","46.9940618","0101000020E6100000F899C46A3D7F4740F899C46A3D7F4740","""Sanandaj""","379","[""local_government_office"",""point_of_interest"",""establishment""]"
"""دفتر ارائه خدمات تامین اجتماعی و دارایی""","35.307272","46.9955099","0101000020E61000000EAC4FDE6C7F47400EAC4FDE6C7F4740","""Sanandaj, كوچه ي نغمه""","380","[""local_government_office"",""point_of_interest"",""establishment""]"
"""امور مالیاتی کردستان، ساختمان فلسطین""","35.3095752","47.0032524","0101000020E610000017D11B936A80474017D11B936A804740","""Sanandaj""","381","[""accounting"",""local_government_office"",""finance"",""point_of_interest"",""establishment""]"
"""اداره کل بنیاد شهید و امور ایثار گران استان کردستان""","35.3179534","46.9953127","0101000020E610000091E51368667F474091E51368667F4740","""Sanandaj, کوچه حبیبی روبرو موزه, Emam Street""","382","[""local_government_office"",""point_of_interest"",""establishment""]"
"""استانداری کردستان""","35.3226581","46.9915268","0101000020E6100000C48DA559EA7E4740C48DA559EA7E4740","""بعثت، سنندج""","383","[""local_government_office"",""point_of_interest"",""establishment""]"
"""شهرداری ناحیه بهاران""","35.2701405","47.0098865","0101000020E61000000116F9F5438147400116F9F543814740","""Baharan Town, Sanandaj""","384","[""local_government_office"",""point_of_interest"",""establishment""]"
"""دادگستری کل کردستان""","35.303643","47.0049593","0101000020E6100000D1A79F81A2804740D1A79F81A2804740","""Sanandaj""","385","[""courthouse"",""premise"",""local_government_office"",""point_of_interest"",""establishment""]"
"""شرکت سهامی آب منطقه ای استان کردستان""","35.292021","47.004048","0101000020E61000009ECE15A5848047409ECE15A584804740","""Sanandaj""","386","[""premise"",""local_government_office"",""point_of_interest"",""establishment""]"
"""خدمات موتوری شهرداری""","35.266357","47.0130103","0101000020E61000006D814E52AA8147406D814E52AA814740","""Baharan Town""","387","[""city_hall"",""premise"",""local_government_office"",""point_of_interest"",""establishment""]"
"""Tourist Hotel""","35.2926556","47.0038961","0101000020E61000007D0ADBAA7F8047407D0ADBAA7F804740","""Sanandaj""","388","[""lodging"",""point_of_interest"",""establishment""]"
"""مهمانسرای علوم پزشکی""","35.3076432","46.9951853","0101000020E6100000E07A5E3B627F4740E07A5E3B627F4740","""Sanandaj""","389","[""lodging"",""point_of_interest"",""establishment""]"
"""دفتر حزب وحدت ملی - شاخه کوردستان""","35.3082342","47.0004317","0101000020E6100000DCB05C250E804740DCB05C250E804740","""Sanandaj""","390","[""lodging"",""point_of_interest"",""establishment""]"
"""شیشه و رنگ هیوا""","35.3044406","46.9915677","0101000020E61000008DA2BDB0EB7E47408DA2BDB0EB7E4740","""Sanandaj""","391","[""lodging"",""point_of_interest"",""establishment""]"
"""Abidar Hotel""","35.31303","46.9965679","0101000020E6100000285F75898F7F4740285F75898F7F4740","""Sanandaj""","392","[""lodging"",""point_of_interest"",""establishment""]"
"""کفش وین طب""","35.3131994","46.9964215","0101000020E610000000C45DBD8A7F474000C45DBD8A7F4740","""Sanandaj, خیبان کوچه هتل, Ferdowsi Street""","393","[""lodging"",""point_of_interest"",""establishment""]"
"""Kaj Hotel""","35.3135447","46.9970337","0101000020E61000004441DFCC9E7F47404441DFCC9E7F4740","""Sanandaj""","394","[""lodging"",""point_of_interest"",""establishment""]"
"""شرکت نمادید""","35.314259","46.9960785","0101000020E6100000D7DF12807F7F4740D7DF12807F7F4740","""Sanandaj""","395","[""lodging"",""point_of_interest"",""establishment""]"
"""hedayat hotel""","35.3141129","46.9975309","0101000020E6100000EE1FB017AF7F4740EE1FB017AF7F4740","""Sanandaj, Ferdowsi Street""","396","[""lodging"",""point_of_interest"",""establishment""]"
"""تجارى ورمکان تاس""","35.3086824","46.9991003","0101000020E61000003DF6C484E27F47403DF6C484E27F4740","""Sanandaj""","397","[""lodging"",""point_of_interest"",""establishment""]"
"""Hedayat Hotel هتل هدایت""","35.3164261","46.9986061","0101000020E6100000068B1E53D27F4740068B1E53D27F4740","""Sanandaj, میدان انقلاب، ابتدای خیابان روبروی بانک ملّت, Ferdowsi Street""","398","[""lodging"",""point_of_interest"",""establishment""]"
"""هتل جبار""","35.3168993","46.9990554","0101000020E610000034F21E0CE17F474034F21E0CE17F4740","""Sanandaj, میدان هتل جبار, Enqelab""","399","[""lodging"",""point_of_interest"",""establishment""]"
"""مسافرخانه امید""","35.3175354","46.9993789","0101000020E6100000FFE7D5A5EB7F4740FFE7D5A5EB7F4740","""Sanandaj""","400","[""lodging"",""point_of_interest"",""establishment""]"
"""Veterinary Hotel Sanandaj""","35.3087155","47.0031971","0101000020E610000095F837C36880474095F837C368804740","""Sanandaj""","401","[""lodging"",""point_of_interest"",""establishment""]"
"""Farhangiyan""","35.3045183","47.0001903","0101000020E610000062235A3C0680474062235A3C06804740","""Sanandaj""","402","[""lodging"",""point_of_interest"",""establishment""]"
"""تپه بهارمست""","35.3126324","47.0081301","0101000020E61000007ECE38680A8147407ECE38680A814740","""Sanandaj, تونل انقلاب""","403","[""lodging"",""point_of_interest"",""establishment""]"
"""کوچه اتحاد""","35.312639","47.0085646","0101000020E6100000A07312A518814740A07312A518814740","""Sanandaj, تونل انقلاب""","404","[""lodging"",""point_of_interest"",""establishment""]"
"""اسکان مهمانان نوروزی""","35.2999893","47.0000267","0101000020E61000003CD0F9DF008047403CD0F9DF00804740","""Sanandaj""","405","[""lodging"",""point_of_interest"",""establishment""]"
"""هتل لاله""","35.3033834","46.9806819","0101000020E6100000BB2308FC867D4740BB2308FC867D4740","""Sanandaj, Abidar Circular""","406","[""lodging"",""point_of_interest"",""establishment""]"
"""Rose Apartment""","35.3109338","46.9772487","0101000020E61000007D47437C167D47407D47437C167D4740","""Safari Ave.""","407","[""lodging"",""point_of_interest"",""establishment""]"
"""مسجد حبیب الله مشهور به ملا ویسی""","35.3140943","46.9965418","0101000020E6100000680C84AE8E7F4740680C84AE8E7F4740","""Sanandaj""","408","[""mosque"",""place_of_worship"",""point_of_interest"",""establishment""]"
"""مسجد غیاثی""","35.3144511","46.992892","0101000020E6100000E23AC615177F4740E23AC615177F4740","""Sanandaj, ‫آیت الله مردوخ‬‎, No. keshavarz""","409","[""mosque"",""place_of_worship"",""point_of_interest"",""establishment""]"
"""مسجد باقرخان وکیل""","35.3119237","46.9912928","0101000020E61000005061B6AEE27E47405061B6AEE27E4740","""Sanandaj""","410","[""mosque"",""place_of_worship"",""point_of_interest"",""establishment""]"
"""مسجد خلیل الله""","35.3072225","46.9938544","0101000020E61000002B7EF89E367F47402B7EF89E367F4740","""Sanandaj, Hasan Abad""","411","[""mosque"",""place_of_worship"",""point_of_interest"",""establishment""]"
"""مزگت ئه‌حمه‌دنه‌سه‌ب مسجد احمدنسب""","35.3094236","47.0029289","0101000020E61000004CDB64F95F8047404CDB64F95F804740","""Sanandaj""","412","[""mosque"",""place_of_worship"",""point_of_interest"",""establishment""]"
"""امامزاده پیر عمر(ع)""","35.3179205","46.9959607","0101000020E6100000F64CE5A37B7F4740F64CE5A37B7F4740","""Sanandaj, Emam St, No. 90,""","413","[""mosque"",""place_of_worship"",""point_of_interest"",""establishment""]"
"""مسجد ملاجلال""","35.3185395","46.9996217","0101000020E61000009DEF969AF37F47409DEF969AF37F4740","""Sanandaj, Taleghani Street""","414","[""mosque"",""place_of_worship"",""point_of_interest"",""establishment""]"
"""مسجد دارالاحسان Dar-ol Ehsan""","35.3194334","46.9949387","0101000020E61000002B03BD265A7F47402B03BD265A7F4740","""Sanandaj, Emam St, No. 90,""","415","[""mosque"",""place_of_worship"",""point_of_interest"",""establishment""]"
"""مسجد امام غزالی""","35.3135712","46.9867283","0101000020E6100000D344E91C4D7E4740D344E91C4D7E4740","""Sanandaj, Khosro Abad, Baharestan 3 Alley""","416","[""mosque"",""place_of_worship"",""point_of_interest"",""establishment""]"
"""Sanandaj Central Mosque""","35.3199243","46.9951183","0101000020E610000056135509607F474056135509607F4740","""Sanandaj, Shohada Street""","417","[""mosque"",""place_of_worship"",""point_of_interest"",""establishment""]"
"""مسجد امام حسین""","35.3052773","46.9895708","0101000020E6100000CD898741AA7E4740CD898741AA7E4740","""Sanandaj""","418","[""mosque"",""place_of_worship"",""point_of_interest"",""establishment""]"
"""مسجد ابوبکر صدیق""","35.3029549","46.9941346","0101000020E6100000396975CD3F7F4740396975CD3F7F4740","""Sanandaj""","419","[""mosque"",""place_of_worship"",""point_of_interest"",""establishment""]"
"""Masjede Wazir .sanandaj""","35.3211462","46.9953687","0101000020E610000024FBD63D687F474024FBD63D687F4740","""Sanandaj""","420","[""mosque"",""place_of_worship"",""point_of_interest"",""establishment""]"
"""مسجد حاج سید ابراهیم""","35.3211902","46.9940474","0101000020E61000003FD6F8F13C7F47403FD6F8F13C7F4740","""Sanandaj""","421","[""mosque"",""place_of_worship"",""point_of_interest"",""establishment""]"
"""مسجد ملا محمد شفیع""","35.3195226","47.0045449","0101000020E61000008C6E62ED948047408C6E62ED94804740","""چوارباخ, Sanandaj""","422","[""mosque"",""place_of_worship"",""point_of_interest"",""establishment""]"
"""Jabar Mosque""","35.3170468","47.0075691","0101000020E6100000E67A3606F8804740E67A3606F8804740","""Sanandaj""","423","[""mosque"",""place_of_worship"",""point_of_interest"",""establishment""]"
"""مسجد حاج فتح اله""","35.3226458","46.9968309","0101000020E61000003592A927987F47403592A927987F4740","""Sanandaj""","424","[""mosque"",""place_of_worship"",""point_of_interest"",""establishment""]"
"""مسجدابوالحسن فدوی""","35.3234008","46.9995201","0101000020E6100000EA984E46F07F4740EA984E46F07F4740","""Sanandaj, Farah Street""","425","[""mosque"",""place_of_worship"",""point_of_interest"",""establishment""]"
"""حضرت خالد ابن ولید""","35.299059","46.989255","0101000020E6100000C63368E89F7E4740C63368E89F7E4740","""Sanandaj, Sa'di Street""","426","[""mosque"",""place_of_worship"",""point_of_interest"",""establishment""]"
"""Mobarak Abad""","35.312884","46.9768953","0101000020E6100000DD8EBAE70A7D4740DD8EBAE70A7D4740","""سنندج، بهارستان 4""","427","[""mosque"",""place_of_worship"",""point_of_interest"",""establishment""]"
"""Seventh Art Video Club""","35.3115554","46.991411","0101000020E610000084F23E8EE67E474084F23E8EE67E4740","""Sanandaj, Abidar Street""","428","[""movie_rental"",""point_of_interest"",""establishment""]"
"""پرديس سينمايى بهمن""","35.3128432","46.9964245","0101000020E6100000723788D68A7F4740723788D68A7F4740","""Sanandaj, Ferdowsi Street""","429","[""movie_theater"",""point_of_interest"",""establishment""]"
"""پیمان احدی""","35.3151684","46.9901531","0101000020E61000003A443756BD7E47403A443756BD7E4740","""Sanandaj, Keshavarz Street""","430","[""movie_theater"",""point_of_interest"",""establishment""]"
"""دکتر همایون قسمتی""","35.3218748","46.9861647","0101000020E61000001C7C17A53A7E47401C7C17A53A7E4740","""Sanandaj""","431","[""movie_theater"",""point_of_interest"",""establishment""]"
"""Cinema Sheada""","35.3201332","47.0013916","0101000020E61000009D3E96992D8047409D3E96992D804740","""چوارباخ, Sanandaj""","432","[""movie_theater"",""point_of_interest"",""establishment""]"
"""Abidar Cinema""","35.308559","46.9743955","0101000020E61000004EEFE2FDB87C47404EEFE2FDB87C4740","""Sanandaj""","433","[""movie_theater"",""point_of_interest"",""establishment""]"
"""Talar Molavi Uok""","35.2786088","47.0010402","0101000020E61000009D7DD415228047409D7DD41522804740","""Sanandaj""","434","[""movie_theater"",""point_of_interest"",""establishment""]"
"""زرین پخش کردستان""","35.3059813","47.0403792","0101000020E610000025B847252B85474025B847252B854740","""Sanandaj, شهرک صنعتی""","435","[""movie_theater"",""point_of_interest"",""establishment""]"
"""شرکت پخش ماد""","35.305763","47.0458613","0101000020E610000076D377C8DE85474076D377C8DE854740","""Sanandaj""","436","[""moving_company"",""point_of_interest"",""establishment""]"
"""عمارت آصف وزیری""","35.3190847","46.9962262","0101000020E61000008D351257847F47408D351257847F4740","""Sanandaj, Imam""","437","[""museum"",""point_of_interest"",""establishment""]"
"""Sanandaj Museum""","35.3183497","46.9945557","0101000020E610000074C6E6994D7F474074C6E6994D7F4740","""سنندج، حبیبی""","438","[""museum"",""point_of_interest"",""establishment""]"
"""Shikh Hama Baqer Cemetery""","35.3177958","46.9854744","0101000020E6100000CA856F06247E4740CA856F06247E4740","""Sanandaj""","439","[""museum"",""point_of_interest"",""establishment""]"
"""عمارت مشیر دیوان""","35.3247122","46.9994114","0101000020E6100000F21F77B6EC7F4740F21F77B6EC7F4740","""Sanandaj, Shohada Street""","440","[""museum"",""point_of_interest"",""establishment""]"
"""مسجد دارالسلام""","35.3273686","47.0042549","0101000020E6100000832CB06C8B804740832CB06C8B804740","""Sanandaj""","441","[""museum"",""point_of_interest"",""establishment""]"
"""Museum of Wildlife""","35.3120523","46.9723678","0101000020E61000007C574E8C767C47407C574E8C767C4740","""Sanandaj, Abidar Circular, No. باغ 28دی""","442","[""museum"",""point_of_interest"",""establishment""]"
"""مجتمع ایفل""","35.2684841","46.9805311","0101000020E6100000FF9A070B827D4740FF9A070B827D4740","""Vila Shahr, Sanandaj""","443","[""museum"",""point_of_interest"",""establishment""]"
"""اموزشگاه موسیقی مراد گورانی""","35.3112846","46.9973653","0101000020E610000026D588AAA97F474026D588AAA97F4740","""Sanandaj, خیابان فلسطین،جنب کلینیک قدس, میدان اقبال""","444","[""night_club"",""point_of_interest"",""establishment""]"
"""حیدر وکیلی فروشند فرش نو ودست دوم""","35.316292","47.002181","0101000020E610000017D68D774780474017D68D7747804740","""Sanandaj""","445","[""night_club"",""point_of_interest"",""establishment""]"
"""Grandfather's House""","35.2944109","46.9986906","0101000020E61000004CE9F417D57F47404CE9F417D57F4740","""Sanandaj, کوچه ی خاک شناسی""","446","[""night_club"",""point_of_interest"",""establishment""]"
"""ويدئو كلوپ شيرزاد""","35.3145194","47.0187407","0101000020E610000055CD62186682474055CD621866824740","""Sanandaj""","447","[""night_club"",""point_of_interest"",""establishment""]"
"""Internet gaming and club play-Astshn""","35.3147619","47.0188022","0101000020E6100000E30B491C68824740E30B491C68824740","""Sanandaj, Ali Asghar Kordestani Street""","448","[""night_club"",""point_of_interest"",""establishment""]"
"""Coffee Farid""","35.249626","47.042701","0101000020E6100000D540F33977854740D540F33977854740","""Sanandaj, جاده دوشان""","449","[""night_club"",""point_of_interest"",""establishment""]"
"""مستوره اردلان""","35.3137069","46.9891155","0101000020E6100000BB3B32569B7E4740BB3B32569B7E4740","""Sanandaj, بلوار خندق""","450","[""park"",""point_of_interest"",""establishment""]"
"""پارکینگ شبانه روزی فردوسی""","35.3143436","46.9972208","0101000020E61000000B7261EEA47F47400B7261EEA47F4740","""فردوسی, بلوار کردستان, سنندج, کردستان""","451","[""park"",""point_of_interest"",""establishment""]"
"""پارک سوار اتوبوس(ناصر خسرو)""","35.3156072","46.9966837","0101000020E610000067FADB54937F474067FADB54937F4740","""Sanandaj""","452","[""park"",""point_of_interest"",""establishment""]"
"""Shano park""","35.3073324","46.9982005","0101000020E6100000E92CB308C57F4740E92CB308C57F4740","""Sanandaj""","453","[""park"",""point_of_interest"",""establishment""]"
"""Parking""","35.3065061","46.9993377","0101000020E61000007594394CEA7F47407594394CEA7F4740","""Sanandaj""","454","[""park"",""point_of_interest"",""establishment""]"
"""Khosroabad park""","35.3146099","46.9867733","0101000020E6100000730866964E7E4740730866964E7E4740","""Sanandaj, بلوار خندق""","455","[""park"",""point_of_interest"",""establishment""]"
"""پارك استاندارد""","35.3042557","47.0010034","0101000020E6100000A61721E120804740A61721E120804740","""Sanandaj""","456","[""park"",""point_of_interest"",""establishment""]"
"""Martyrs Park""","35.3204749","46.9964084","0101000020E6100000D7BA794F8A7F4740D7BA794F8A7F4740","""Sanandaj, Farah Street""","457","[""park"",""point_of_interest"",""establishment""]"
"""پارک شطرنج""","35.3073814","46.9828244","0101000020E6100000FBDA9F30CD7D4740FBDA9F30CD7D4740","""Sanandaj, Chamran Boulevard""","458","[""park"",""point_of_interest"",""establishment""]"
"""پارک اِرم""","35.2988064","46.9888611","0101000020E6100000AF642200937E4740AF642200937E4740","""Sanandaj""","459","[""park"",""premise"",""point_of_interest"",""establishment""]"
"""Laleh""","35.3124926","47.0139218","0101000020E6100000C9D98530C8814740C9D98530C8814740","""Sanandaj""","460","[""park"",""point_of_interest"",""establishment""]"
"""park dadgostari""","35.3154964","46.9788356","0101000020E61000008C14257C4A7D47408C14257C4A7D4740","""Sanandaj""","461","[""park"",""point_of_interest"",""establishment""]"
"""بوستان جنت""","35.315042","46.9774603","0101000020E6100000B5D14A6B1D7D4740B5D14A6B1D7D4740","""Mobarak Abad, Sanandaj""","462","[""park"",""point_of_interest"",""establishment""]"
"""Emam Shafei Square, Janat Park""","35.3148461","46.9772535","0101000020E6100000663387A4167D4740663387A4167D4740","""Sanandaj, Behesht 2 Alley""","463","[""park"",""point_of_interest"",""establishment""]"
"""پارک پیشکسوت""","35.2952553","47.0033003","0101000020E61000009248EC246C8047409248EC246C804740","""Sanandaj""","464","[""park"",""point_of_interest"",""establishment""]"
"""Toos Nowzar Forest Park""","35.3054125","47.0169603","0101000020E610000049EA4EC12B82474049EA4EC12B824740","""Sanandaj""","465","[""park"",""point_of_interest"",""establishment""]"
"""Amiri'yeh""","35.3076621","46.9717054","0101000020E61000005D2CB1D7607C47405D2CB1D7607C4740","""Sanandaj, پارک جنگلی آبیدر""","466","[""park"",""point_of_interest"",""establishment""]"
"""28 Dey Garden""","35.3118811","46.9710983","0101000020E6100000C1D9F7F24C7C4740C1D9F7F24C7C4740","""Sanandaj, Abidar Circular""","467","[""park"",""point_of_interest"",""establishment""]"
"""Abidar Regional Park""","35.3071174","46.9701315","0101000020E6100000E3A8DC442D7C4740E3A8DC442D7C4740","""Sanandaj, خ محی الدین حق شناس, Abidar Circular""","468","[""campground"",""park"",""lodging"",""point_of_interest"",""establishment""]"
"""مرکز حفاظت محیط زیست آبیدر""","35.313545","46.9691223","0101000020E6100000832914330C7C4740832914330C7C4740","""Sanandaj, پارک جنگلی آبیدر""","469","[""park"",""point_of_interest"",""establishment""]"
"""مجتمع تجاری صدف""","35.309881","46.998176","0101000020E610000078D32D3BC47F474078D32D3BC47F4740","""Sanandaj, Molavi Kord Street""","470","[""parking"",""point_of_interest"",""establishment""]"
"""Car Parking""","35.3142689","46.9988318","0101000020E6100000379A6DB8D97F4740379A6DB8D97F4740","""Sanandaj""","471","[""parking"",""point_of_interest"",""establishment""]"
"""پارکینگ طبقاتی عبدالعلی سنندجی""","35.3143769","46.9988506","0101000020E6100000844B2256DA7F4740844B2256DA7F4740","""Sanandaj""","472","[""parking"",""point_of_interest"",""establishment""]"
"""پارکینگ نمکی""","35.314459","47.0000579","0101000020E6100000A04DB3E501804740A04DB3E501804740","""Sanandaj""","473","[""parking"",""point_of_interest"",""establishment""]"
"""پارکینگ و گاراژ زندی (باغچه مریم)""","35.3166222","47.0219001","0101000020E6100000BBA35A9FCD824740BBA35A9FCD824740","""فرجه، سنندج""","474","[""parking"",""point_of_interest"",""establishment""]"
"""پارکینگ تالار""","35.2830946","47.0050129","0101000020E610000070C74043A480474070C74043A4804740","""Sanandaj""","475","[""parking"",""point_of_interest"",""establishment""]"
"""انبار ایران خودرو""","35.3405918","47.0108467","0101000020E61000007EE2B66C638147407EE2B66C63814740","""Sanandaj""","476","[""parking"",""point_of_interest"",""establishment""]"
"""Sadaf""","35.3093024","46.9978967","0101000020E6100000A6A43D14BB7F4740A6A43D14BB7F4740","""Sanandaj""","477","[""premise"",""parking"",""point_of_interest"",""establishment""]"
"""پارکینگ""","35.3141907","46.998808","0101000020E6100000D87DC7F0D87F4740D87DC7F0D87F4740","""Sanandaj""","478","[""premise"",""parking"",""point_of_interest"",""establishment""]"
"""سازمان اتوبوسراني سنندج""","35.3230229","47.0037442","0101000020E61000005B46A0B07A8047405B46A0B07A804740","""Sanandaj""","479","[""parking"",""premise"",""point_of_interest"",""establishment""]"
"""Pharmacy Shafa""","35.3122783","46.9960453","0101000020E6100000D06A92697E7F4740D06A92697E7F4740","""Sanandaj""","480","[""pharmacy"",""health"",""store"",""point_of_interest"",""establishment""]"
"""Dr. Salavati""","35.3114383","46.997006","0101000020E610000038F581E49D7F474038F581E49D7F4740","""Sanandaj, Felestin Street""","481","[""pharmacy"",""health"",""store"",""point_of_interest"",""establishment""]"
"""داروخانه شبانه روزی دکترخدیو""","35.3119494","46.9954214","0101000020E61000008A5EEBF7697F47408A5EEBF7697F4740","""Sanandaj, Keshavarz Street""","482","[""pharmacy"",""health"",""store"",""point_of_interest"",""establishment""]"
"""داروخانه ی دکتر سلطانی""","35.3130078","46.9969155","0101000020E610000010B056ED9A7F474010B056ED9A7F4740","""Sanandaj""","483","[""pharmacy"",""health"",""store"",""point_of_interest"",""establishment""]"
"""داروخانه دکتر قادری""","35.3108939","47.0001285","0101000020E610000016A6EF350480474016A6EF3504804740","""Sanandaj""","484","[""pharmacy"",""health"",""store"",""point_of_interest"",""establishment""]"
"""داروخانه ری""","35.3153142","46.9980486","0101000020E6100000C768780EC07F4740C768780EC07F4740","""Sanandaj, Ferdowsi Street""","485","[""pharmacy"",""health"",""store"",""point_of_interest"",""establishment""]"
"""دارخانه ی دکتر قاضی""","35.3075841","46.9962381","0101000020E6100000BC43E5BA847F4740BC43E5BA847F4740","""Sanandaj""","486","[""pharmacy"",""health"",""store"",""point_of_interest"",""establishment""]"
"""داروخانه دکتر عبدی""","35.315813","46.9981549","0101000020E6100000CCEB2D8AC37F4740CCEB2D8AC37F4740","""Sanandaj, Ferdowsi Street""","487","[""pharmacy"",""health"",""store"",""point_of_interest"",""establishment""]"
"""داروخانه ی دکتر کزازی""","35.3144191","46.9897032","0101000020E61000008F5F2E98AE7E47408F5F2E98AE7E4740","""Sanandaj""","488","[""pharmacy"",""health"",""store"",""point_of_interest"",""establishment""]"
"""داروخانه دكتر كرمي""","35.3191226","47.0015301","0101000020E6100000D4BA682332804740D4BA682332804740","""چوارباخ, Sanandaj""","489","[""pharmacy"",""veterinary_care"",""health"",""store"",""point_of_interest"",""establishment""]"
"""Dr. Sadeghi Pharmacy""","35.3021731","46.9993035","0101000020E6100000A1A3552DE97F4740A1A3552DE97F4740","""Sanandaj, Adab Street, No. Saadi""","490","[""pharmacy"",""health"",""store"",""point_of_interest"",""establishment""]"
"""Pharmacy Dr. Seyed""","35.3010072","46.9952095","0101000020E610000092955F06637F474092955F06637F4740","""Sanandaj, Hafez Street""","491","[""pharmacy"",""health"",""store"",""point_of_interest"",""establishment""]"
"""داروخانه شبانه روزی""","35.3218748","46.9861647","0101000020E61000001C7C17A53A7E47401C7C17A53A7E4740","""Sanandaj""","492","[""pharmacy"",""health"",""store"",""point_of_interest"",""establishment""]"
"""گیاهان دارویی ابن سینا""","35.3247122","46.9994114","0101000020E6100000F21F77B6EC7F4740F21F77B6EC7F4740","""Sanandaj, Shohada Street""","493","[""pharmacy"",""health"",""store"",""point_of_interest"",""establishment""]"
"""داروخانه دکتر فهمی""","35.3143381","47.0143195","0101000020E6100000F818AC38D5814740F818AC38D5814740","""Sanandaj, Abas Abad Circular Road""","494","[""pharmacy"",""health"",""store"",""point_of_interest"",""establishment""]"
"""Pastor Pharmacy""","35.2685068","46.9960275","0101000020E6100000543541D47D7F4740543541D47D7F4740","""Sanandaj, 22 Bahman Boulevard""","495","[""pharmacy"",""health"",""store"",""point_of_interest"",""establishment""]"
"""داروخانه پاستور""","35.2684102","46.9934566","0101000020E6100000667FFB95297F4740667FFB95297F4740","""Sanandaj, Baharan Town, 12 Farvardin Boulevard""","496","[""pharmacy"",""health"",""store"",""point_of_interest"",""establishment""]"
"""کارگاه لوله کشی اب و گاز ممتاز""","35.3029781","46.9942201","0101000020E61000004E43AF9A427F47404E43AF9A427F4740","""Sanandaj, جنب مسجد ابوبکر صدیق""","497","[""plumber"",""point_of_interest"",""establishment""]"
"""پلیس راه همدان""","35.3081781","47.0551649","0101000020E61000008DB1B8A40F8747408DB1B8A40F874740","""Sanandaj, سنندج - همدان""","498","[""police"",""point_of_interest"",""establishment""]"
"""مهمان سرای نیروی""","35.3057131","47.0000989","0101000020E6100000FE21A23D03804740FE21A23D03804740","""Sanandaj, پاسداران""","499","[""police"",""point_of_interest"",""establishment""]"
"""معاونت وظیفه عمومی""","35.3168575","46.9869821","0101000020E6100000639EF06D557E4740639EF06D557E4740","""Sanandaj""","500","[""police"",""point_of_interest"",""establishment""]"
"""سازمان نظام وظیفه عمومی""","35.3166747","46.9865406","0101000020E61000008E965EF6467E47408E965EF6467E4740","""Sanandaj, Keshavarz""","501","[""police"",""point_of_interest"",""establishment""]"
"""Traffic Police Office""","35.3191194","46.9874069","0101000020E610000021AC6B59637E474021AC6B59637E4740","""Sanandaj, Ardalan""","502","[""police"",""point_of_interest"",""establishment""]"
"""ایستگاه مهمانان نوروزی""","35.2992341","47.0030361","0101000020E61000008C1AA77C638047408C1AA77C63804740","""Sanandaj, Pasdaran Boulevard""","503","[""police"",""point_of_interest"",""establishment""]"
"""ایستگاه امیریه (آبیدر)""","35.3067423","46.9706565","0101000020E61000002D93E1783E7C47402D93E1783E7C4740","""آبیدر""","504","[""police"",""point_of_interest"",""establishment""]"
"""کلانتری 14 بهاران""","35.2646018","46.9989599","0101000020E6100000FA4102EBDD7F4740FA4102EBDD7F4740","""Baharan Town, فرهنگیان""","505","[""police"",""point_of_interest"",""establishment""]"
"""مرکز پلیس""","35.3105079","46.9988839","0101000020E61000001F80796DDB7F47401F80796DDB7F4740","""Sanandaj""","506","[""police"",""premise"",""point_of_interest"",""establishment""]"
"""پليس راه سنندج - كرمانشاه""","35.2531841","47.0152892","0101000020E6100000B2FD1AFFF4814740B2FD1AFFF4814740","""Sanandaj""","507","[""police"",""premise"",""point_of_interest"",""establishment""]"
"""Sanandaj Post Office""","35.3124331","46.9947588","0101000020E610000040B4A041547F474040B4A041547F4740","""Sanandaj""","508","[""post_office"",""finance"",""point_of_interest"",""establishment""]"
"""دفتر خدمات ارتباطی و پست""","35.2693729","47.0048264","0101000020E61000002614C7269E8047402614C7269E804740","""Sanandaj, Bustan Street""","509","[""post_office"",""finance"",""point_of_interest"",""establishment""]"
"""Tayeb Real Estate مشاور معاملات املاک ومستغلات طیب""","35.3198937","46.9931636","0101000020E6100000EEC91EFC1F7F4740EEC91EFC1F7F4740","""Sanandaj, Emam St, No. 90,""","510","[""real_estate_agency"",""point_of_interest"",""establishment""]"
"""املاک و موتور سیکلت امجدی""","35.331032","46.9955085","0101000020E6100000ED3191D26C7F4740ED3191D26C7F4740","""Shahin Dej, کمربندی سه راه, کارگر""","511","[""real_estate_agency"",""point_of_interest"",""establishment""]"
"""املاک امجدی""","35.3313283","46.9960507","0101000020E610000036D4DE967E7F474036D4DE967E7F4740","""سه راه فاطمیه""","512","[""real_estate_agency"",""point_of_interest"",""establishment""]"
"""مشاور املاک رضاشافعی""","35.3177179","46.9710397","0101000020E61000000F4F65074B7C47400F4F65074B7C4740","""Sanandaj, Shebli Boulevard""","513","[""real_estate_agency"",""point_of_interest"",""establishment""]"
"""املاک عمارت""","35.3208795","47.001912","0101000020E610000027BC04A73E80474027BC04A73E804740","""Sanandaj, چوارباخ, Keshavarz, شرکت ملی پخش فراورده های نفتی""","514","[""real_estate_agency"",""point_of_interest"",""establishment""]"
"""مشاورین مسکن آ.ب.آ""","35.2991679","46.9913431","0101000020E6100000BFCEA854E47E4740BFCEA854E47E4740","""Sanandaj, Sa'di Street""","515","[""real_estate_agency"",""point_of_interest"",""establishment""]"
"""مشاور املاک آبیدر""","35.3200057","46.9751361","0101000020E610000011537D42D17C474011537D42D17C4740","""Sanandaj, خیابان بروجردی""","516","[""real_estate_agency"",""point_of_interest"",""establishment""]"
"""املاک کاظمی""","35.2824465","46.9904998","0101000020E6100000E5D88BB2C87E4740E5D88BB2C87E4740","""Zagros Town, Sanandaj""","517","[""real_estate_agency"",""point_of_interest"",""establishment""]"
"""املاک ساحل سبز""","35.2903444","47.0294","0101000020E61000004F401361C38347404F401361C3834740","""Sanandaj""","518","[""real_estate_agency"",""point_of_interest"",""establishment""]"
"""مشاور املاک امیر امانی""","35.2641877","47.0081652","0101000020E6100000907BA98E0B814740907BA98E0B814740","""Baharan Town, Sanandaj""","519","[""real_estate_agency"",""point_of_interest"",""establishment""]"
"""khaterekhob""","35.3077048","46.9939227","0101000020E610000042A0E9DB387F474042A0E9DB387F4740","""Sanandaj""","520","[""restaurant"",""food"",""point_of_interest"",""establishment""]"
"""Cofe Restaurant Cactus""","35.2783588","47.004844","0101000020E61000007BCA6ABA9E8047407BCA6ABA9E804740","""Sanandaj""","521","[""restaurant"",""food"",""point_of_interest"",""establishment""]"
"""رستوران هشت چنار""","35.3031667","47.064857","0101000020E610000056F5F23B4D88474056F5F23B4D884740","""سنندج - همدان""","522","[""restaurant"",""food"",""point_of_interest"",""establishment""]"
"""رستوران هشت چنار""","35.3029729","47.0648289","0101000020E6100000F7AA3A504C884740F7AA3A504C884740","""سنندج - همدان""","523","[""restaurant"",""food"",""point_of_interest"",""establishment""]"
"""جەرگ و دڵی کۆساڵان""","35.3114","46.9967973","0101000020E6100000DC1ECE0D977F4740DC1ECE0D977F4740","""Sanandaj, Felestin Street""","524","[""restaurant"",""food"",""point_of_interest"",""establishment""]"
"""رستوران فردو""","35.3108548","46.9957134","0101000020E610000030986489737F474030986489737F4740","""Sanandaj""","525","[""restaurant"",""food"",""point_of_interest"",""establishment""]"
"""رستوران دهكده""","35.3127412","46.9956064","0101000020E61000001AD8CF07707F47401AD8CF07707F4740","""Sanandaj""","526","[""restaurant"",""food"",""point_of_interest"",""establishment""]"
"""Olympic Restaurant""","35.310341","46.9954892","0101000020E6100000B7C2AA306C7F4740B7C2AA306C7F4740","""Sanandaj, Hasan Abad""","527","[""restaurant"",""food"",""point_of_interest"",""establishment""]"
"""کبابی بهار""","35.3102266","46.9954696","0101000020E6100000C314408C6B7F4740C314408C6B7F4740","""Sanandaj, میدان اقبال""","528","[""bar"",""restaurant"",""food"",""point_of_interest"",""establishment""]"
"""کافه رستوران زیتون""","35.3098865","46.9952648","0101000020E6100000146E43D6647F4740146E43D6647F4740","""Sanandaj""","529","[""restaurant"",""food"",""point_of_interest"",""establishment""]"
"""پیتزا نارنج""","35.3097787","46.9969874","0101000020E610000013C37A489D7F474013C37A489D7F4740","""Sanandaj""","530","[""restaurant"",""food"",""point_of_interest"",""establishment""]"
"""فست فود شهروند Fast Food Shahrvand""","35.3113751","46.9935451","0101000020E6100000EFCC5F7C2C7F4740EFCC5F7C2C7F4740","""Sanandaj""","531","[""restaurant"",""food"",""point_of_interest"",""establishment""]"
"""Restaurant Abidar""","35.3108476","46.9986802","0101000020E6100000D514B7C0D47F4740D514B7C0D47F4740","""Sanandaj""","532","[""restaurant"",""food"",""point_of_interest"",""establishment""]"
"""اغذیه طلایی""","35.3087902","46.9974696","0101000020E61000008A607715AD7F47408A607715AD7F4740","""Sanandaj, پاسداران""","533","[""restaurant"",""food"",""point_of_interest"",""establishment""]"
"""فلافل ونیز شعبه نمکی""","35.314958","46.9981072","0101000020E610000079F30AFAC17F474079F30AFAC17F4740","""Sanandaj, Namaki Boulevard""","534","[""restaurant"",""food"",""point_of_interest"",""establishment""]"
"""Morvarid Restaurant""","35.3146065","46.9990068","0101000020E6100000A53D6F74DF7F4740A53D6F74DF7F4740","""Sanandaj, Namaki Boulevard""","535","[""restaurant"",""food"",""point_of_interest"",""establishment""]"
"""Hot Pizza""","35.3115403","46.9912864","0101000020E61000001B7C0679E27E47401B7C0679E27E4740","""Sanandaj, Mawlavi Kurd Square""","536","[""restaurant"",""food"",""point_of_interest"",""establishment""]"
"""Sheyda Restaurant""","35.3077646","46.9968716","0101000020E6100000D527147D997F4740D527147D997F4740","""Sanandaj, Farid Tarif""","537","[""restaurant"",""food"",""point_of_interest"",""establishment""]"
"""Anahita Restaurant""","35.3113766","46.9912138","0101000020E6100000042C0318E07E4740042C0318E07E4740","""Sanandaj, Abidar Street""","538","[""restaurant"",""food"",""point_of_interest"",""establishment""]"
"""رستوران فست فودگل سرخ""","35.3095231","47.0006305","0101000020E6100000A77004A914804740A77004A914804740","""Sanandaj, Sayed Qutb""","539","[""restaurant"",""food"",""point_of_interest"",""establishment""]"
"""بتون همدان""","35.2709335","46.9943897","0101000020E6100000587D6429487F4740587D6429487F4740","""Baharan Town, Sanandaj""","540","[""rv_park"",""lodging"",""point_of_interest"",""establishment""]"
"""گاج نمايندگي سنندج""","35.3123787","46.994214","0101000020E6100000D79C8367427F4740D79C8367427F4740","""Sanandaj, ابتداي خيابان كشاورز‘""","541","[""school"",""point_of_interest"",""establishment""]"
"""دانشجو بازار""","35.3048352","47.0003932","0101000020E6100000059266E20C804740059266E20C804740","""Sanandaj""","542","[""school"",""point_of_interest"",""establishment""]"
"""آموزشگاه برنا""","35.3037041","47.0001314","0101000020E6100000F259434E04804740F259434E04804740","""Sanandaj, سه راه کوچه پروین اعتصامی(مابین بانک توسعه صادرات و بانک پارسیان""","543","[""school"",""point_of_interest"",""establishment""]"
"""دبیرستان دکتر مظفر پرتوماه""","35.3066971","47.0096759","0101000020E61000009907550F3D8147409907550F3D814740","""Sanandaj""","544","[""school"",""point_of_interest"",""establishment""]"
"""شرکت ژوان بتن زاگرس""","35.3034912","47.0087054","0101000020E6100000382630421D814740382630421D814740","""Sanandaj""","545","[""school"",""point_of_interest"",""establishment""]"
"""مدرسه نمونه دولتي""","35.3312873","47.0056902","0101000020E61000002F74DB74BA8047402F74DB74BA804740","""Iran""","546","[""school"",""point_of_interest"",""establishment""]"
"""دبیرستان فرزانگان دوره اول""","35.3201583","46.9685449","0101000020E6100000921A7F47F97B4740921A7F47F97B4740","""Sanandaj""","547","[""school"",""point_of_interest"",""establishment""]"
"""فرزانگان""","35.3214315","46.967","0101000020E6100000B29DEFA7C67B4740B29DEFA7C67B4740","""Sanandaj""","548","[""school"",""point_of_interest"",""establishment""]"
"""دبیرستان هوشمند دانشمند""","35.2740471","46.9803634","0101000020E61000000099428C7C7D47400099428C7C7D4740","""Sanandaj, Vila Shahr, Resalat Street""","549","[""school"",""point_of_interest"",""establishment""]"
"""مدرسه ی صالحین""","35.2689629","46.9995007","0101000020E6100000206A91A3EF7F4740206A91A3EF7F4740","""Baharan Town, Sanandaj""","550","[""school"",""point_of_interest"",""establishment""]"
"""مهد نونهالان""","35.3115609","46.9957379","0101000020E61000009FF1E956747F47409FF1E956747F4740","""Sanandaj, میدان اقبال""","551","[""school"",""point_of_interest"",""establishment""]"
"""Talent martyr Beheshti""","35.310901","46.997775","0101000020E610000019E25817B77F474019E25817B77F4740","""Sanandaj, Felestin Street""","552","[""school"",""point_of_interest"",""establishment""]"
"""مدرسه تیزهوشان ناحیه یک""","35.310846","46.9978786","0101000020E61000006B30687CBA7F47406B30687CBA7F4740","""Sanandaj""","553","[""school"",""point_of_interest"",""establishment""]"
"""High school talent martyr Beheshti second term District 1""","35.3105344","46.9976689","0101000020E61000003FDE509DB37F47403FDE509DB37F4740","""Sanandaj, Molavi Kord Street""","554","[""school"",""point_of_interest"",""establishment""]"
"""آزمون هاي سراسري گاج سنندج""","35.312562","46.9940507","0101000020E61000007088A70D3D7F47407088A70D3D7F4740","""Sanandaj, Keshavarz Street""","555","[""school"",""point_of_interest"",""establishment""]"
"""اموزشگاه مجد کردستان""","35.3128451","46.9932421","0101000020E61000005441A08E227F47405441A08E227F4740","""Sanandaj, Keshavarz Street""","556","[""school"",""point_of_interest"",""establishment""]"
"""دانشگاه ازاد""","35.3109095","46.9995184","0101000020E610000008E00B38F07F474008E00B38F07F4740","""Sanandaj, Felestin Street""","557","[""school"",""point_of_interest"",""establishment""]"
"""دبستان غیردولتی راه تربیت ۲""","35.3098901","46.9987483","0101000020E6100000C2B7FAFBD67F4740C2B7FAFBD67F4740","""Sanandaj""","558","[""school"",""point_of_interest"",""establishment""]"
"""هنرستان غیر انتفاعی جوان""","35.31072","46.9996053","0101000020E610000042340411F37F474042340411F37F4740","""Sanandaj""","559","[""school"",""point_of_interest"",""establishment""]"
"""آموزشگاه تعلیم رانندگی فجر""","35.308434","46.9985532","0101000020E610000078A85C97D07F474078A85C97D07F4740","""Sanandaj""","560","[""school"",""point_of_interest"",""establishment""]"
"""کفش فرخ""","35.3276009","47.0015432","0101000020E6100000FEC34C9132804740FEC34C9132804740","""Sanandaj, Shohada Street""","561","[""shoe_store"",""store"",""point_of_interest"",""establishment""]"
"""گروه کردوب آبیدر""","35.3081631","46.9998274","0101000020E610000086522058FA7F474086522058FA7F4740","""Sanandaj, Sayed Qutb""","562","[""shopping_mall"",""point_of_interest"",""establishment""]"
"""فروشگاههای هزار چاشنی""","35.311585","46.9968161","0101000020E610000029D082AB977F474029D082AB977F4740","""Sanandaj, میدان آزادی (اقبال) جنب بانک ملت, میدان اقبال""","563","[""shopping_mall"",""point_of_interest"",""establishment""]"
"""فروشگاه آینده سازان""","35.3090556","46.9977321","0101000020E6100000AFD579AFB57F4740AFD579AFB57F4740","""Sanandaj, پاسداران""","564","[""shopping_mall"",""point_of_interest"",""establishment""]"
"""شرکت مبتکران نوین پرنیان""","35.3138295","46.9921249","0101000020E61000000D86DFF2FD7E47400D86DFF2FD7E4740","""Sanandaj, Keshavarz Street""","565","[""shopping_mall"",""point_of_interest"",""establishment""]"
"""KARA LED""","35.3092123","47.0005793","0101000020E6100000FE4685FB12804740FE4685FB12804740","""Sanandaj, Sayed Qutb""","566","[""shopping_mall"",""point_of_interest"",""establishment""]"
"""Rayantak-Company""","35.3099355","47.0015696","0101000020E61000007B55C26E338047407B55C26E33804740","""Sanandaj""","567","[""shopping_mall"",""point_of_interest"",""establishment""]"
"""Nezarat Gostar Maad Imen""","35.3146311","46.9913001","0101000020E6100000C102F3EBE27E4740C102F3EBE27E4740","""Sanandaj""","568","[""shopping_mall"",""point_of_interest"",""establishment""]"
"""Apple Store (Silver Apple)""","35.3068703","46.9987956","0101000020E6100000BFB1C288D87F4740BFB1C288D87F4740","""Sanandaj, Pasdaran Street""","569","[""shopping_mall"",""point_of_interest"",""establishment""]"
"""موب استور""","35.3055821","46.9991791","0101000020E610000061ACCA19E57F474061ACCA19E57F4740","""Sanandaj, Pasdaran Street""","570","[""shopping_mall"",""point_of_interest"",""establishment""]"
"""دفتر شرکت و فروشگاه آریان غرب کردستان""","35.3138024","47.0109037","0101000020E6100000E473DD4A65814740E473DD4A65814740","""میدان نبوت جنب بانک ملت""","571","[""shopping_mall"",""point_of_interest"",""establishment""]"
"""برند لرد""","35.2973389","46.9971319","0101000020E61000003026A204A27F47403026A204A27F4740","""Sanandaj, Jame Jam Boulevard""","572","[""shopping_mall"",""point_of_interest"",""establishment""]"
"""فروشگاه لوازم خانگی نومال-استوک و نو""","35.3274507","47.0010567","0101000020E610000089F83DA02280474089F83DA022804740","""Sanandaj, Attar Naishaburi Street""","573","[""shopping_mall"",""point_of_interest"",""establishment""]"
"""قالب سیفی""","35.3215869","47.0151389","0101000020E6100000DE324C12F0814740DE324C12F0814740","""فرجه، سنندج""","574","[""shopping_mall"",""point_of_interest"",""establishment""]"
"""فروشگاه اتصالات زمانی""","35.3185804","46.9716385","0101000020E61000006A847EA65E7C47406A847EA65E7C4740","""Sanandaj, خیابان خضرزنده پایین تر از, میدان شورا""","575","[""shopping_mall"",""point_of_interest"",""establishment""]"
"""فروشگاه برادران زمانی""","35.3185591","46.9715336","0101000020E61000008A7B87365B7C47408A7B87365B7C4740","""Sanandaj, Khezreh Zendeh Boulevard""","576","[""shopping_mall"",""point_of_interest"",""establishment""]"
"""Leather production company mikonanad""","35.3096351","47.0459364","0101000020E610000016D9733EE185474016D9733EE1854740","""Sanandaj""","577","[""shopping_mall"",""point_of_interest"",""establishment""]"
"""دکوراسیون داخلی کلبه چوبی""","35.2938354","47.0419121","0101000020E610000041672D605D85474041672D605D854740","""ئاساولە""","578","[""shopping_mall"",""point_of_interest"",""establishment""]"
"""پاساژ آینه""","35.3123737","46.996387","0101000020E61000006B94F59B897F47406B94F59B897F4740","""Sanandaj, Ferdowsi Street""","579","[""shopping_mall"",""point_of_interest"",""establishment""]"
"""تریدی پرو""","35.3107275","46.9956994","0101000020E6100000CBD2F313737F4740CBD2F313737F4740","""Sanandaj""","580","[""shopping_mall"",""point_of_interest"",""establishment""]"
"""کیف و کفش شب نقره ای""","35.3096386","46.9973693","0101000020E610000068C416CCA97F474068C416CCA97F4740","""Sanandaj""","581","[""shopping_mall"",""point_of_interest"",""establishment""]"
"""ورزشگاه 22 گوڵان""","35.3238626","46.9811176","0101000020E6100000D7C3F242957D4740D7C3F242957D4740","""Sanandaj, Shahid Beheshti Boulevard, No. بلوار شهید بهشتی""","582","[""stadium"",""point_of_interest"",""establishment""]"
"""استادیوم ورزشی""","35.3235466","46.9803715","0101000020E6100000193735D07C7D4740193735D07C7D4740","""Sanandaj""","583","[""stadium"",""point_of_interest"",""establishment""]"
"""Malak Niya Stadium""","35.3184091","47.0063264","0101000020E6100000FB8CB04DCF804740FB8CB04DCF804740","""Sanandaj""","584","[""stadium"",""premise"",""point_of_interest"",""establishment""]"
"""مرکز توزیع سنندج پخش التیام""","35.3036471","47.0490253","0101000020E61000009A160676468647409A16067646864740","""Sanandaj""","585","[""storage"",""point_of_interest"",""establishment""]"
"""انباره فروشگاه کامیارپن""","35.3244371","47.0229552","0101000020E6100000F8A22C32F0824740F8A22C32F0824740","""Sanandaj""","586","[""storage"",""point_of_interest"",""establishment""]"
"""دفتر مرکزی مبلمان موراشین""","35.312003","47.0271733","0101000020E61000008669296A7A8347408669296A7A834740","""Sanandaj""","587","[""furniture_store"",""home_goods_store"",""store"",""point_of_interest"",""establishment""]"
"""Mobile Padideh""","35.3123717","46.9963872","0101000020E61000009613A39D897F47409613A39D897F4740","""Sanandaj""","588","[""store"",""point_of_interest"",""establishment""]"
"""Sarmavaz""","35.3138341","46.9978778","0101000020E6100000C433B275BA7F4740C433B275BA7F4740","""Sanandaj, سنندج بلوار كردستان ضلع شرقي پل فردوسي, Kordestan Boulevard""","589","[""home_goods_store"",""store"",""point_of_interest"",""establishment""]"
"""سایت نوشاپ""","35.3092485","46.9986065","0101000020E610000057897956D27F474057897956D27F4740","""Sanandaj, rosha office building, Molavi Kord Street, No. #molavi kord""","590","[""store"",""finance"",""point_of_interest"",""establishment""]"
"""فروشگاه الماسی""","35.3087322","46.9979121","0101000020E610000030E46C95BB7F474030E46C95BB7F4740","""Sanandaj, Street, passajh khayam, Pasdaran""","591","[""store"",""point_of_interest"",""establishment""]"
"""کلکسیون ناز""","35.3083568","46.9980207","0101000020E6100000929D6D24BF7F4740929D6D24BF7F4740","""Sanandaj, Pasdaran""","592","[""clothing_store"",""store"",""point_of_interest"",""establishment""]"
"""پوشاک آدم برفی""","35.3145151","46.9992063","0101000020E6100000843AF6FDE57F4740843AF6FDE57F4740","""Sanandaj, Namaki Boulevard""","593","[""clothing_store"",""store"",""point_of_interest"",""establishment""]"
"""شهرفناوری""","35.3077338","46.9963092","0101000020E61000001C5A530F877F47401C5A530F877F4740","""Sanandaj, Ta'rif Street""","594","[""store"",""point_of_interest"",""establishment""]"
"""پرتو مدارماد""","35.3142454","46.991464","0101000020E6100000A794D74AE87E4740A794D74AE87E4740","""Sanandaj, Keshavarz Street""","595","[""store"",""point_of_interest"",""establishment""]"
"""Ofogh Koorosh Store""","35.3073179","46.9932555","0101000020E61000003B8908FF227F47403B8908FF227F4740","""Sanandaj, روبروی مسجد خلیل الله, Hasan Abad""","596","[""grocery_or_supermarket"",""food"",""store"",""point_of_interest"",""establishment""]"
"""تابلو ترافیک""","35.311864","47.0035028","0101000020E6100000E4B89DC772804740E4B89DC772804740","""Sanandaj, Namaki Boulevard""","597","[""store"",""point_of_interest"",""establishment""]"
"""To buy electric scooters""","35.3175152","46.9945416","0101000020E610000078419F234D7F474078419F234D7F4740","""Sanandaj, Habibi Alley""","598","[""department_store"",""store"",""point_of_interest"",""establishment""]"
"""Ofogh Koorosh Store""","35.3132123","47.0033308","0101000020E6100000E788C6246D804740E788C6246D804740","""Sanandaj, چهارراه انقلاب, Be'sat Boulevard""","599","[""grocery_or_supermarket"",""food"",""store"",""point_of_interest"",""establishment""]"
"""شرکت هورام سازه گستر""","35.3086115","46.9891776","0101000020E6100000C7F7205F9D7E4740C7F7205F9D7E4740","""Sanandaj, Afrooz Alley""","600","[""home_goods_store"",""store"",""point_of_interest"",""establishment""]"
"""Microsoft""","35.3057222","46.999265","0101000020E6100000CB845FEAE77F4740CB845FEAE77F4740","""Sanandaj, Pasdaran Street""","601","[""store"",""point_of_interest"",""establishment""]"
"""Interior decoration shell""","35.3118662","47.0038918","0101000020E61000007FDCC8867F8047407FDCC8867F804740","""Sanandaj, Namaki Boulevard""","602","[""store"",""point_of_interest"",""establishment""]"
"""موبایل تکنوتل""","35.3052791","46.9995036","0101000020E6100000FC1DE5BBEF7F4740FC1DE5BBEF7F4740","""Sanandaj, پاسداران, مجتمع تجاری کردستان""","603","[""department_store"",""store"",""point_of_interest"",""establishment""]"
"""Montakhab Office Furniture Store""","35.3090318","47.0051015","0101000020E61000008BD47B2AA78047408BD47B2AA7804740","""Sanandaj, سنندج، بلوار کردستان، نرسیده به ورودی خ فلسطین، حد فاصل پل بعثت و جانبازان، ساختمان الین""","604","[""furniture_store"",""home_goods_store"",""store"",""point_of_interest"",""establishment""]"
"""دکوراسیون داخلی صدف""","35.3082913","47.0052258","0101000020E6100000370C303DAB804740370C303DAB804740","""Sanandaj, كوچۀ حسين گويلي""","605","[""store"",""point_of_interest"",""establishment""]"
"""فروشگاه پوشاک تهران 7هزار""","35.3134328","47.00652","0101000020E61000008D62B9A5D58047408D62B9A5D5804740","""Sanandaj, خیابان نبش کوچه شوش, Enqelab""","606","[""clothing_store"",""store"",""point_of_interest"",""establishment""]"
"""حسن آباد""","35.3104632","46.9959873","0101000020E61000009D5D08837C7F47409D5D08837C7F4740","""Sanandaj""","607","[""taxi_stand"",""point_of_interest"",""establishment""]"
"""ایستگاه اتوبوس نایسر(خط ویژه)""","35.3125032","47.0101064","0101000020E61000007CBDA02A4B8147407CBDA02A4B814740","""Sanandaj, 21""","608","[""taxi_stand"",""point_of_interest"",""establishment""]"
"""تاکسی""","35.2998602","47.0171553","0101000020E6100000003A162532824740003A162532824740","""Sanandaj, Tohid""","609","[""taxi_stand"",""point_of_interest"",""establishment""]"
"""میدان اقبال""","35.3113281","46.9970425","0101000020E61000006D1CB1169F7F47406D1CB1169F7F4740","""Sanandaj""","610","[""taxi_stand"",""premise"",""point_of_interest"",""establishment""]"
"""سه راه پاوان""","35.2688158","47.0022823","0101000020E610000008EE51C94A80474008EE51C94A804740","""Baharan Town""","611","[""taxi_stand"",""premise"",""point_of_interest"",""establishment""]"
"""ايستگاه اتوبوس ناصر خسرو""","35.3155659","46.9968336","0101000020E6100000E8C64F3E987F4740E8C64F3E987F4740","""Sanandaj""","612","[""bus_station"",""transit_station"",""point_of_interest"",""establishment""]"
"""Sayed Qutb""","35.3109098","47.0016789","0101000020E6100000EE4BA20337804740EE4BA20337804740","""Sanandaj""","613","[""bus_station"",""transit_station"",""point_of_interest"",""establishment""]"
"""Azadi Square station""","35.3077448","46.9994903","0101000020E6100000AB95534CEF7F4740AB95534CEF7F4740","""Sanandaj""","614","[""bus_station"",""transit_station"",""point_of_interest"",""establishment""]"
"""ایستگاه سه راه ادب""","35.3035158","47.0010513","0101000020E6100000248FF17222804740248FF17222804740","""Sanandaj, پاسداران""","615","[""bus_station"",""transit_station"",""point_of_interest"",""establishment""]"
"""ایستگاه دانشکده کشاورزی""","35.3031918","47.0034814","0101000020E610000078921914728047407892191472804740","""Sanandaj, Hadi Ziaoddini Boulevard""","616","[""bus_station"",""transit_station"",""point_of_interest"",""establishment""]"
"""ترمینال سنندج ، مریوان""","35.3218748","46.9861647","0101000020E61000001C7C17A53A7E47401C7C17A53A7E4740","""Sanandaj""","617","[""bus_station"",""transit_station"",""point_of_interest"",""establishment""]"
"""ایستگاه دانشکده علوم انسانی""","35.2978725","46.9878012","0101000020E61000008B790C45707E47408B790C45707E4740","""Sanandaj""","618","[""bus_station"",""transit_station"",""point_of_interest"",""establishment""]"
"""ایستگاه سرای سالمندان""","35.2952805","46.9996512","0101000020E61000001EB40D92F47F47401EB40D92F47F4740","""Sanandaj, Jame Jam Boulevard""","619","[""bus_station"",""transit_station"",""point_of_interest"",""establishment""]"
"""ایستگاه خاک شناسی""","35.2933584","46.9973338","0101000020E610000003194BA2A87F474003194BA2A87F4740","""Sanandaj, کوچه ی خاک شناسی""","620","[""bus_station"",""transit_station"",""point_of_interest"",""establishment""]"
"""ایستگاه علوم پزشکی""","35.2828801","47.003417","0101000020E610000010A0DFF76F80474010A0DFF76F804740","""Sanandaj, Pasdaran Boulevard""","621","[""bus_station"",""transit_station"",""point_of_interest"",""establishment""]"
"""Abidar Town Bus Stop""","35.2813605","46.9888794","0101000020E61000001258A599937E47401258A599937E4740","""Sanandaj, کوچه هیوا""","622","[""bus_station"",""transit_station"",""point_of_interest"",""establishment""]"
"""ترمینال مریوان-سنندج""","35.3440148","47.013694","0101000020E6100000631399B9C0814740631399B9C0814740","""Sanandaj, A82""","623","[""bus_station"",""transit_station"",""point_of_interest"",""establishment""]"
"""Morvarid""","35.2763813","46.981793","0101000020E61000008B389D64AB7D47408B389D64AB7D4740","""Sanandaj""","624","[""bus_station"",""transit_station"",""point_of_interest"",""establishment""]"
"""Payam Town""","35.2724354","47.0094788","0101000020E6100000AE00F09936814740AE00F09936814740","""Baharan Town, Pasdaran Boulevard""","625","[""bus_station"",""transit_station"",""point_of_interest"",""establishment""]"
"""ایستگاه خیابان بوستان""","35.2695054","47.0044953","0101000020E61000002A3E4F4D938047402A3E4F4D93804740","""Baharan Town, 22 Bahman Boulevard""","626","[""bus_station"",""transit_station"",""point_of_interest"",""establishment""]"
"""ایستگاه سوپر شیشه ای""","35.2684324","46.9927955","0101000020E6100000D80E46EC137F4740D80E46EC137F4740","""Sanandaj""","627","[""bus_station"",""transit_station"",""point_of_interest"",""establishment""]"
"""ایستگاه میدان قانع""","35.268082","46.9960785","0101000020E6100000D7DF12807F7F4740D7DF12807F7F4740","""Sanandaj, 22 Bahman Boulevard""","628","[""bus_station"",""transit_station"",""point_of_interest"",""establishment""]"
"""ایستگاه 4/19""","35.2655986","47.0092535","0101000020E6100000D0EFFB372F814740D0EFFB372F814740","""Baharan Town, Baharan 4/19""","629","[""bus_station"",""transit_station"",""point_of_interest"",""establishment""]"
"""Ghane""","35.2605396","46.99242","0101000020E6100000BBF2599E077F4740BBF2599E077F4740","""Sanandaj, Baharan 2/19""","630","[""bus_station"",""transit_station"",""point_of_interest"",""establishment""]"
"""ایستگاه 3/19""","35.2607323","47.0073009","0101000020E61000009D5D633CEF8047409D5D633CEF804740","""Baharan Town, 29Esfand Boulevard""","631","[""bus_station"",""transit_station"",""point_of_interest"",""establishment""]"
"""شرکت هواپیمایی آوای سفر سبز""","35.3087773","46.9947324","0101000020E6100000C3222B64537F4740C3222B64537F4740","""Sanandaj""","632","[""travel_agency"",""point_of_interest"",""establishment""]"
"""گروه سرمایه گذاری کیا پرواز""","35.3134383","46.9926758","0101000020E6100000EC432800107F4740EC432800107F4740","""Sanandaj""","633","[""travel_agency"",""point_of_interest"",""establishment""]"
"""پاساژ برهان, شرکت هواپیمایی کارن سنندجKAREN TOUR""","35.3084771","46.9979851","0101000020E61000009932CBF9BD7F47409932CBF9BD7F4740","""Sanandaj, Pasdaran""","634","[""travel_agency"",""point_of_interest"",""establishment""]"
"""Saina Parvaz""","35.3117836","46.9886139","0101000020E61000007D6F78E68A7E47407D6F78E68A7E4740","""Sanandaj, Shebli Boulevard""","635","[""travel_agency"",""point_of_interest"",""establishment""]"
"""آژانس پرستو""","35.3159448","46.9855424","0101000020E61000002269DC40267E47402269DC40267E4740","""Sanandaj, خانقاه""","636","[""travel_agency"",""point_of_interest"",""establishment""]"
"""شركت هواپيمايي شاناگشت سنندج""","35.2969082","46.9979758","0101000020E61000008799C7ABBD7F47408799C7ABBD7F4740","""Sanandaj""","637","[""travel_agency"",""point_of_interest"",""establishment""]"
"""Sanandaj Bus Terminal""","35.3096012","47.0282519","0101000020E610000062461DC29D83474062461DC29D834740","""Sanandaj, Hamedan - Sanandaj Highway""","638","[""travel_agency"",""point_of_interest"",""establishment""]"
"""آژانس زاگرس""","35.2816821","46.9946586","0101000020E6100000B3D716F9507F4740B3D716F9507F4740","""Zagros Town, Sanandaj""","639","[""travel_agency"",""point_of_interest"",""establishment""]"
"""University of Kurdistan""","35.2784285","46.9938723","0101000020E61000003D732035377F47403D732035377F4740","""Sanandaj, Pasdaran street""","640","[""university"",""point_of_interest"",""establishment""]"
"""Azad University of Sanandaj""","35.3025236","47.0022395","0101000020E610000034A149624980474034A1496249804740","""Sanandaj, Janbazan Boulevard""","641","[""university"",""point_of_interest"",""establishment""]"
"""Kurdistan University of Medical Sciences""","35.2824622","47.0017696","0101000020E610000042107BFC3980474042107BFC39804740","""Sanandaj""","642","[""university"",""point_of_interest"",""establishment""]"
"""آموزشکده فنی و حرفه ای دختران سنندج""","35.2970296","46.9867353","0101000020E610000086A7A1574D7E474086A7A1574D7E4740","""Sanandaj""","643","[""university"",""point_of_interest"",""establishment""]"
"""farhangian University""","35.3288258","47.0095432","0101000020E610000019F329B63881474019F329B638814740","""Sanandaj, Sohrevardi Square""","644","[""university"",""point_of_interest"",""establishment""]"
"""Yazdanpanah University of Sanandaj""","35.308064","47.0016178","0101000020E6100000B50B170335804740B50B170335804740","""Sanandaj, آپارتمانی های ادب""","645","[""university"",""point_of_interest"",""establishment""]"
"""Yazdanpanah University of Sanandaj""","35.3356914","47.0111873","0101000020E6100000B4D0DF956E814740B4D0DF956E814740","""Sanandaj, Moalem Boulevard""","646","[""university"",""point_of_interest"",""establishment""]"
"""آموزش طراحی وب آبیدر سافت""","35.3203077","46.9860363","0101000020E61000009B95FE6F367E47409B95FE6F367E4740","""Sanandaj, بعثت, سنندج 17 شهریور""","647","[""university"",""point_of_interest"",""establishment""]"
"""دانشگاه علمی کاربردی- مدیریت صنعتی""","35.3045629","46.9807681","0101000020E6100000E33A21CF897D4740E33A21CF897D4740","""Sanandaj, تکیه و چمن""","648","[""university"",""point_of_interest"",""establishment""]"
"""مرکز آموزش علمی کاربردی فرهنگ و هنر واحد یک کردستان""","35.3065029","46.9768349","0101000020E6100000B58B0EED087D4740B58B0EED087D4740","""Sanandaj, بلوار تكيه و چمن""","649","[""university"",""point_of_interest"",""establishment""]"
"""مرکز آپا""","35.279551","47.000868","0101000020E610000074CE4F711C80474074CE4F711C804740","""Baharan Town, 35°16'46. 47°00'03., 4th Alley""","650","[""university"",""point_of_interest"",""establishment""]"
"""مرکز آپا""","35.2784285","46.9938723","0101000020E61000003D732035377F47403D732035377F4740","""Sanandaj, University, Kurdistan کدپستی: 66177-13851""","651","[""university"",""point_of_interest"",""establishment""]"
"""Payam-E-Nour University""","35.2744369","46.9951631","0101000020E6100000D0572481617F4740D0572481617F4740","""Sanandaj""","652","[""university"",""point_of_interest"",""establishment""]"
"""موسسه موسیقی نوا""","35.3125949","46.9952309","0101000020E6100000FDBBE3B9637F4740FDBBE3B9637F4740","""Sanandaj, Sajadi1 Alley""","653","[""university"",""point_of_interest"",""establishment""]"
"""موسسه كودك و خلاقيت سنندج""","35.3081563","46.994441","0101000020E61000009766BAD7497F47409766BAD7497F4740","""Sanandaj, Hassan Abad Street""","654","[""university"",""point_of_interest"",""establishment""]"
"""دبستان هدایت""","35.3208045","47.0000455","0101000020E61000008881AE7D018047408881AE7D01804740","""Sanandaj, Salah Adin Ayoobi Street""","655","[""university"",""school"",""point_of_interest"",""establishment""]"
"""دانشكده معماري""","35.3024971","47.00278","0101000020E61000009D8A54185B8047409D8A54185B804740","""Sanandaj""","656","[""university"",""point_of_interest"",""establishment""]"
"""کاوش در اسلام""","35.3247122","46.9994114","0101000020E6100000F21F77B6EC7F4740F21F77B6EC7F4740","""Sanandaj, Shohada Street""","657","[""university"",""point_of_interest"",""establishment""]"
"""جهاد دانشگاهی سنندج""","35.3080148","47.0120827","0101000020E610000077AC08ED8B81474077AC08ED8B814740","""Sanandaj""","658","[""university"",""point_of_interest"",""establishment""]"
"""دانشگاه مذاهب اسلامی - سنندج""","35.322111","46.9831342","0101000020E61000001F4A6A57D77D47401F4A6A57D77D4740","""Sanandaj, بعثت, Shahid Beheshti Boulevard""","659","[""university"",""point_of_interest"",""establishment""]"
"""داروخانه دكتر كرمي""","35.3191226","47.0015301","0101000020E6100000D4BA682332804740D4BA682332804740","""چوارباخ, Sanandaj""","660","[""pharmacy"",""veterinary_care"",""health"",""store"",""point_of_interest"",""establishment""]"
"""کلینیک و پت شاپ آکیتا""","35.299512","46.985559","0101000020E6100000A3A31CCC267E4740A3A31CCC267E4740","""Shiraz, 35°17'58.2\""N 46°59'08., 0""","661","[""veterinary_care"",""point_of_interest"",""establishment""]"
